"Longitude (x)","Latitude (y)","Station Name","Climate ID","Date/Time","Year","Month","Day","Time","Temp (°C)","Temp Flag","Dew Point Temp (°C)","Dew Point Temp Flag","Rel Hum (%)","Rel Hum Flag","Wind Dir (10s deg)","Wind Dir Flag","Wind Spd (km/h)","Wind Spd Flag","Visibility (km)","Visibility Flag","Stn Press (kPa)","Stn Press Flag","Hmdx","Hmdx Flag","Wind Chill","Wind Chill Flag","Weather"
"-73.75","45.47","MONTREAL/PIERRE ELLIOTT TRUDEAU INTL A","7025250","2011-12-01 00:00","2011","12","01","00:00","-0.2","","-5.2","","69","","29","","24","","25.0","","100.90","","","","-6","","Clear"
"-73.75","45.47","MONTREAL/PIERRE ELLIOTT TRUDEAU INTL A","7025250","2011-12-01 01:00","2011","12","01","01:00","-1.1","","-6.9","","65","","29","","22","","25.0","","101.07","","","","-7","","Clear"
"-73.75","45.47","MONTREAL/PIERRE ELLIOTT TRUDEAU INTL A","7025250","2011-12-01 02:00","2011","12","01","02:00","-1.5","","-7.6","","63","","27","","17","","25.0","","101.23","","","","-7","","Clear"
"-73.75","45.47","MONTREAL/PIERRE ELLIOTT TRUDEAU INTL A","7025250","2011-12-01 03:00","2011","12","01","03:00","-2.1","","-8.0","","64","","27","","11","","25.0","","101.36","","","","-6","","Clear"
"-73.75","45.47","MONTREAL/PIERRE ELLIOTT TRUDEAU INTL A","7025250","2011-12-01 04:00","2011","12","01","04:00","-2.5","","-8.4","","64","","27","","11","","25.0","","101.52","","","","-7","","Clear"
"-73.75","45.47","MONTREAL/PIERRE ELLIOTT TRUDEAU INTL A","7025250","2011-12-01 05:00","2011","12","01","05:00","-3.5","","-8.7","","67","","30","","11","","25.0","","101.66","","","","-8","","Clear"
"-73.75","45.47","MONTREAL/PIERRE ELLIOTT TRUDEAU INTL A","7025250","2011-12-01 06:00","2011","12","01","06:00","-4.5","","-8.9","","71","","30","","9","","25.0","","101.78","","","","-8","","Clear"
"-73.75","45.47","MONTREAL/PIERRE ELLIOTT TRUDEAU INTL A","7025250","2011-12-01 07:00","2011","12","01","07:00","-4.7","","-8.8","","73","","33","","7","","48.3","","101.91","","","","-8","","Clear"
"-73.75","45.47","MONTREAL/PIERRE ELLIOTT TRUDEAU INTL A","7025250","2011-12-01 08:00","2011","12","01","08:00","-4.0","","-8.1","","73","","28","","6","","24.1","","102.02","","","","-7","","Mainly Clear"
"-73.75","45.47","MONTREAL/PIERRE ELLIOTT TRUDEAU INTL A","7025250","2011-12-01 09:00","2011","12","01","09:00","-2.4","","-8.0","","65","","26","","4","","24.1","","102.11","","","","-4","","Mostly Cloudy"
"-73.75","45.47","MONTREAL/PIERRE ELLIOTT TRUDEAU INTL A","7025250","2011-12-01 10:00","2011","12","01","10:00","-1.6","","-7.9","","62","","","","0","","24.1","","102.13","","","","","","Mainly Clear"
"-73.75","45.47","MONTREAL/PIERRE ELLIOTT TRUDEAU INTL A","7025250","2011-12-01 11:00","2011","12","01","11:00","-1.0","","-7.8","","60","","","","0","","24.1","","102.09","","","","","","Mostly Cloudy"
"-73.75","45.47","MONTREAL/PIERRE ELLIOTT TRUDEAU INTL A","7025250","2011-12-01 12:00","2011","12","01","12:00","-1.0","","-6.9","","64","","24","","7","","24.1","","102.09","","","","-4","","Mostly Cloudy"
"-73.75","45.47","MONTREAL/PIERRE ELLIOTT TRUDEAU INTL A","7025250","2011-12-01 13:00","2011","12","01","13:00","-1.2","","-7.0","","65","","27","","11","","24.1","","102.05","","","","-5","","Cloudy"
"-73.75","45.47","MONTREAL/PIERRE ELLIOTT TRUDEAU INTL A","7025250","2011-12-01 14:00","2011","12","01","14:00","-1.2","","-6.7","","66","","27","","11","","48.3","","102.08","","","","-5","","Cloudy"
"-73.75","45.47","MONTREAL/PIERRE ELLIOTT TRUDEAU INTL A","7025250","2011-12-01 15:00","2011","12","01","15:00","-1.3","","-6.8","","66","","27","","15","","48.3","","102.10","","","","-6","","Cloudy"
"-73.75","45.47","MONTREAL/PIERRE ELLIOTT TRUDEAU INTL A","7025250","2011-12-01 16:00","2011","12","01","16:00","-1.2","","-6.9","","65","","27","","15","","48.3","","102.09","","","","-6","","Cloudy"
"-73.75","45.47","MONTREAL/PIERRE ELLIOTT TRUDEAU INTL A","7025250","2011-12-01 17:00","2011","12","01","17:00","-1.0","","-6.5","","66","","27","","11","","25.0","","102.14","","","","-5","","Cloudy"
"-73.75","45.47","MONTREAL/PIERRE ELLIOTT TRUDEAU INTL A","7025250","2011-12-01 18:00","2011","12","01","18:00","-1.6","","-6.8","","68","","27","","9","","25.0","","102.12","","","","-5","","Mostly Cloudy"
"-73.75","45.47","MONTREAL/PIERRE ELLIOTT TRUDEAU INTL A","7025250","2011-12-01 19:00","2011","12","01","19:00","-1.7","","-6.8","","68","","24","","7","","25.0","","102.16","","","","-4","","Mainly Clear"
"-73.75","45.47","MONTREAL/PIERRE ELLIOTT TRUDEAU INTL A","7025250","2011-12-01 20:00","2011","12","01","20:00","-2.8","","-6.8","","74","","30","","4","","25.0","","102.14","","","","-4","","Mainly Clear"
"-73.75","45.47","MONTREAL/PIERRE ELLIOTT TRUDEAU INTL A","7025250","2011-12-01 21:00","2011","12","01","21:00","-2.1","","-6.2","","73","","26","","4","","25.0","","102.16","","","","-4","","Mostly Cloudy"
"-73.75","45.47","MONTREAL/PIERRE ELLIOTT TRUDEAU INTL A","7025250","2011-12-01 22:00","2011","12","01","22:00","-1.4","","-5.1","","76","","14","","9","","25.0","","102.11","","","","-5","","Mostly Cloudy"
"-73.75","45.47","MONTREAL/PIERRE ELLIOTT TRUDEAU INTL A","7025250","2011-12-01 23:00","2011","12","01","23:00","-1.3","","-5.2","","75","","16","","13","","25.0","","102.07","","","","-6","","Mostly Cloudy"
"-73.75","45.47","MONTREAL/PIERRE ELLIOTT TRUDEAU INTL A","7025250","2011-12-02 00:00","2011","12","02","00:00","-1.3","","-5.3","","74","","13","","7","","25.0","","102.04","","","","-4","","Mostly Cloudy"
"-73.75","45.47","MONTREAL/PIERRE ELLIOTT TRUDEAU INTL A","7025250","2011-12-02 01:00","2011","12","02","01:00","-1.1","","-5.0","","75","","12","","11","","25.0","","102.00","","","","-5","","Mostly Cloudy"
"-73.75","45.47","MONTREAL/PIERRE ELLIOTT TRUDEAU INTL A","7025250","2011-12-02 02:00","2011","12","02","02:00","-0.8","","-4.5","","76","","12","","11","","25.0","","101.95","","","","-5","","Mostly Cloudy"
"-73.75","45.47","MONTREAL/PIERRE ELLIOTT TRUDEAU INTL A","7025250","2011-12-02 03:00","2011","12","02","03:00","-0.5","","-3.9","","78","","13","","11","","25.0","","101.89","","","","-4","","Mostly Cloudy"
"-73.75","45.47","MONTREAL/PIERRE ELLIOTT TRUDEAU INTL A","7025250","2011-12-02 04:00","2011","12","02","04:00","0.0","","-3.5","","77","","15","","6","","25.0","","101.88","","","","-2","","Cloudy"
"-73.75","45.47","MONTREAL/PIERRE ELLIOTT TRUDEAU INTL A","7025250","2011-12-02 05:00","2011","12","02","05:00","0.3","","-3.1","","78","","13","","9","","25.0","","101.82","","","","","","Cloudy"
"-73.75","45.47","MONTREAL/PIERRE ELLIOTT TRUDEAU INTL A","7025250","2011-12-02 06:00","2011","12","02","06:00","0.8","","-3.1","","75","","16","","9","","25.0","","101.81","","","","","","Cloudy"
"-73.75","45.47","MONTREAL/PIERRE ELLIOTT TRUDEAU INTL A","7025250","2011-12-02 07:00","2011","12","02","07:00","1.3","","-2.3","","77","","18","","11","","25.0","","101.81","","","","","","Cloudy"
"-73.75","45.47","MONTREAL/PIERRE ELLIOTT TRUDEAU INTL A","7025250","2011-12-02 08:00","2011","12","02","08:00","1.9","","-1.9","","76","","18","","13","","24.1","","101.83","","","","","","Cloudy"
"-73.75","45.47","MONTREAL/PIERRE ELLIOTT TRUDEAU INTL A","7025250","2011-12-02 09:00","2011","12","02","09:00","3.0","","-1.2","","74","","20","","11","","24.1","","101.84","","","","","","Cloudy"
"-73.75","45.47","MONTREAL/PIERRE ELLIOTT TRUDEAU INTL A","7025250","2011-12-02 10:00","2011","12","02","10:00","4.0","","0.0","","75","","20","","15","","19.3","","101.88","","","","","","Rain"
"-73.75","45.47","MONTREAL/PIERRE ELLIOTT TRUDEAU INTL A","7025250","2011-12-02 11:00","2011","12","02","11:00","3.4","","0.1","","79","","26","","20","","19.3","","101.88","","","","","","Rain"
"-73.75","45.47","MONTREAL/PIERRE ELLIOTT TRUDEAU INTL A","7025250","2011-12-02 12:00","2011","12","02","12:00","2.6","","-0.2","","82","","25","","17","","12.9","","101.88","","","","","","Rain"
"-73.75","45.47","MONTREAL/PIERRE ELLIOTT TRUDEAU INTL A","7025250","2011-12-02 13:00","2011","12","02","13:00","1.9","","-0.3","","85","","29","","13","","9.7","","101.88","","","","","","Drizzle,Fog"
"-73.75","45.47","MONTREAL/PIERRE ELLIOTT TRUDEAU INTL A","7025250","2011-12-02 14:00","2011","12","02","14:00","2.1","","-0.1","","85","","28","","13","","19.3","","101.95","","","","","","Drizzle"
"-73.75","45.47","MONTREAL/PIERRE ELLIOTT TRUDEAU INTL A","7025250","2011-12-02 15:00","2011","12","02","15:00","2.0","","-0.2","","85","","28","","11","","12.9","","102.05","","","","","","Drizzle"
"-73.75","45.47","MONTREAL/PIERRE ELLIOTT TRUDEAU INTL A","7025250","2011-12-02 16:00","2011","12","02","16:00","1.7","","-0.8","","83","","27","","13","","24.1","","102.19","","","","","","Drizzle"
"-73.75","45.47","MONTREAL/PIERRE ELLIOTT TRUDEAU INTL A","7025250","2011-12-02 17:00","2011","12","02","17:00","0.7","","-2.3","","80","","30","","17","","25.0","","102.33","","","","","","Mostly Cloudy"
"-73.75","45.47","MONTREAL/PIERRE ELLIOTT TRUDEAU INTL A","7025250","2011-12-02 18:00","2011","12","02","18:00","0.4","","-3.5","","75","","29","","24","","25.0","","102.48","","","","","","Mostly Cloudy"
"-73.75","45.47","MONTREAL/PIERRE ELLIOTT TRUDEAU INTL A","7025250","2011-12-02 19:00","2011","12","02","19:00","0.0","","-4.6","","71","","31","","13","","25.0","","102.60","","","","-4","","Mostly Cloudy"
"-73.75","45.47","MONTREAL/PIERRE ELLIOTT TRUDEAU INTL A","7025250","2011-12-02 20:00","2011","12","02","20:00","-0.5","","-5.4","","69","","31","","17","","25.0","","102.77","","","","-5","","Mostly Cloudy"
"-73.75","45.47","MONTREAL/PIERRE ELLIOTT TRUDEAU INTL A","7025250","2011-12-02 21:00","2011","12","02","21:00","-1.0","","-6.0","","69","","32","","13","","25.0","","102.89","","","","-5","","Mostly Cloudy"
"-73.75","45.47","MONTREAL/PIERRE ELLIOTT TRUDEAU INTL A","7025250","2011-12-02 22:00","2011","12","02","22:00","-1.7","","-6.6","","69","","29","","17","","25.0","","103.00","","","","-7","","Mostly Cloudy"
"-73.75","45.47","MONTREAL/PIERRE ELLIOTT TRUDEAU INTL A","7025250","2011-12-02 23:00","2011","12","02","23:00","-2.4","","-7.5","","68","","27","","15","","25.0","","103.08","","","","-7","","Mostly Cloudy"
"-73.75","45.47","MONTREAL/PIERRE ELLIOTT TRUDEAU INTL A","7025250","2011-12-03 00:00","2011","12","03","00:00","-2.7","","-8.0","","67","","30","","9","","25.0","","103.13","","","","-6","","Mostly Cloudy"
"-73.75","45.47","MONTREAL/PIERRE ELLIOTT TRUDEAU INTL A","7025250","2011-12-03 01:00","2011","12","03","01:00","-3.0","","-8.5","","66","","31","","13","","25.0","","103.12","","","","-8","","Mostly Cloudy"
"-73.75","45.47","MONTREAL/PIERRE ELLIOTT TRUDEAU INTL A","7025250","2011-12-03 02:00","2011","12","03","02:00","-3.0","","-8.6","","65","","29","","13","","25.0","","103.26","","","","-8","","Cloudy"
"-73.75","45.47","MONTREAL/PIERRE ELLIOTT TRUDEAU INTL A","7025250","2011-12-03 03:00","2011","12","03","03:00","-3.3","","-9.0","","65","","31","","11","","25.0","","103.28","","","","-8","","Mostly Cloudy"
"-73.75","45.47","MONTREAL/PIERRE ELLIOTT TRUDEAU INTL A","7025250","2011-12-03 04:00","2011","12","03","04:00","-3.7","","-9.0","","67","","33","","4","","25.0","","103.30","","","","-5","","Mostly Cloudy"
"-73.75","45.47","MONTREAL/PIERRE ELLIOTT TRUDEAU INTL A","7025250","2011-12-03 05:00","2011","12","03","05:00","-4.0","","-9.1","","68","","33","","4","","25.0","","103.35","","","","-6","","Mainly Clear"
"-73.75","45.47","MONTREAL/PIERRE ELLIOTT TRUDEAU INTL A","7025250","2011-12-03 06:00","2011","12","03","06:00","-5.1","","-9.3","","72","","30","","4","","25.0","","103.39","","","","-7","","Mainly Clear"
"-73.75","45.47","MONTREAL/PIERRE ELLIOTT TRUDEAU INTL A","7025250","2011-12-03 07:00","2011","12","03","07:00","-4.7","","-8.9","","72","","","","0","","24.1","","103.37","","","","","","Mainly Clear"
"-73.75","45.47","MONTREAL/PIERRE ELLIOTT TRUDEAU INTL A","7025250","2011-12-03 08:00","2011","12","03","08:00","-4.0","","-8.8","","69","","3","","4","","48.3","","103.46","","","","-6","","Mainly Clear"
"-73.75","45.47","MONTREAL/PIERRE ELLIOTT TRUDEAU INTL A","7025250","2011-12-03 09:00","2011","12","03","09:00","-3.3","","-8.7","","66","","8","","6","","48.3","","103.46","","","","-6","","Mainly Clear"
"-73.75","45.47","MONTREAL/PIERRE ELLIOTT TRUDEAU INTL A","7025250","2011-12-03 10:00","2011","12","03","10:00","-1.5","","-8.0","","61","","10","","4","","48.3","","103.44","","","","-3","","Mostly Cloudy"
"-73.75","45.47","MONTREAL/PIERRE ELLIOTT TRUDEAU INTL A","7025250","2011-12-03 11:00","2011","12","03","11:00","-0.8","","-7.3","","61","","17","","9","","48.3","","103.31","","","","-4","","Mostly Cloudy"
"-73.75","45.47","MONTREAL/PIERRE ELLIOTT TRUDEAU INTL A","7025250","2011-12-03 12:00","2011","12","03","12:00","-0.1","","-6.7","","61","","17","","13","","48.3","","103.22","","","","-4","","Mostly Cloudy"
"-73.75","45.47","MONTREAL/PIERRE ELLIOTT TRUDEAU INTL A","7025250","2011-12-03 13:00","2011","12","03","13:00","0.6","","-6.3","","60","","17","","7","","48.3","","103.17","","","","","","Mainly Clear"
"-73.75","45.47","MONTREAL/PIERRE ELLIOTT TRUDEAU INTL A","7025250","2011-12-03 14:00","2011","12","03","14:00","1.1","","-5.2","","63","","14","","7","","48.3","","103.09","","","","","","Mainly Clear"
"-73.75","45.47","MONTREAL/PIERRE ELLIOTT TRUDEAU INTL A","7025250","2011-12-03 15:00","2011","12","03","15:00","1.0","","-5.3","","63","","14","","15","","48.3","","103.06","","","","","","Mainly Clear"
"-73.75","45.47","MONTREAL/PIERRE ELLIOTT TRUDEAU INTL A","7025250","2011-12-03 16:00","2011","12","03","16:00","0.3","","-5.1","","67","","13","","11","","48.3","","103.01","","","","","","Mainly Clear"
"-73.75","45.47","MONTREAL/PIERRE ELLIOTT TRUDEAU INTL A","7025250","2011-12-03 17:00","2011","12","03","17:00","0.6","","-4.9","","67","","8","","4","","25.0","","103.03","","","","","","Clear"
"-73.75","45.47","MONTREAL/PIERRE ELLIOTT TRUDEAU INTL A","7025250","2011-12-03 18:00","2011","12","03","18:00","-0.3","","-4.8","","72","","13","","7","","25.0","","102.93","","","","-3","","Clear"
"-73.75","45.47","MONTREAL/PIERRE ELLIOTT TRUDEAU INTL A","7025250","2011-12-03 19:00","2011","12","03","19:00","0.4","","-4.3","","71","","15","","17","","25.0","","102.82","","","","","","Clear"
"-73.75","45.47","MONTREAL/PIERRE ELLIOTT TRUDEAU INTL A","7025250","2011-12-03 20:00","2011","12","03","20:00","-0.3","","-4.6","","73","","14","","13","","25.0","","102.77","","","","-4","","Clear"
"-73.75","45.47","MONTREAL/PIERRE ELLIOTT TRUDEAU INTL A","7025250","2011-12-03 21:00","2011","12","03","21:00","-0.7","","-5.3","","71","","15","","6","","25.0","","102.71","","","","-3","","Mostly Cloudy"
"-73.75","45.47","MONTREAL/PIERRE ELLIOTT TRUDEAU INTL A","7025250","2011-12-03 22:00","2011","12","03","22:00","-0.9","","-6.0","","68","","16","","6","","25.0","","102.68","","","","-3","","Clear"
"-73.75","45.47","MONTREAL/PIERRE ELLIOTT TRUDEAU INTL A","7025250","2011-12-03 23:00","2011","12","03","23:00","-0.5","","-5.7","","68","","14","","9","","25.0","","102.62","","","","-4","","Mainly Clear"
"-73.75","45.47","MONTREAL/PIERRE ELLIOTT TRUDEAU INTL A","7025250","2011-12-04 00:00","2011","12","04","00:00","-1.1","","-5.8","","70","","14","","11","","25.0","","102.55","","","","-5","","Mainly Clear"
"-73.75","45.47","MONTREAL/PIERRE ELLIOTT TRUDEAU INTL A","7025250","2011-12-04 01:00","2011","12","04","01:00","-0.5","","-6.0","","66","","13","","9","","25.0","","102.49","","","","-4","","Mainly Clear"
"-73.75","45.47","MONTREAL/PIERRE ELLIOTT TRUDEAU INTL A","7025250","2011-12-04 02:00","2011","12","04","02:00","-0.7","","-6.5","","65","","17","","4","","25.0","","102.50","","","","-2","","Mainly Clear"
"-73.75","45.47","MONTREAL/PIERRE ELLIOTT TRUDEAU INTL A","7025250","2011-12-04 03:00","2011","12","04","03:00","0.4","","-5.0","","67","","13","","7","","25.0","","102.48","","","","","","Mostly Cloudy"
"-73.75","45.47","MONTREAL/PIERRE ELLIOTT TRUDEAU INTL A","7025250","2011-12-04 04:00","2011","12","04","04:00","0.0","","-5.1","","68","","6","","6","","25.0","","102.50","","","","-2","","Mostly Cloudy"
"-73.75","45.47","MONTREAL/PIERRE ELLIOTT TRUDEAU INTL A","7025250","2011-12-04 05:00","2011","12","04","05:00","0.8","","-4.5","","68","","13","","6","","25.0","","102.43","","","","","","Mostly Cloudy"
"-73.75","45.47","MONTREAL/PIERRE ELLIOTT TRUDEAU INTL A","7025250","2011-12-04 06:00","2011","12","04","06:00","0.4","","-5.1","","67","","14","","11","","25.0","","102.33","","","","","","Mainly Clear"
"-73.75","45.47","MONTREAL/PIERRE ELLIOTT TRUDEAU INTL A","7025250","2011-12-04 07:00","2011","12","04","07:00","0.9","","-5.0","","65","","15","","15","","25.0","","102.21","","","","","","Mainly Clear"
"-73.75","45.47","MONTREAL/PIERRE ELLIOTT TRUDEAU INTL A","7025250","2011-12-04 08:00","2011","12","04","08:00","1.7","","-4.0","","66","","17","","7","","48.3","","102.22","","","","","","Mostly Cloudy"
"-73.75","45.47","MONTREAL/PIERRE ELLIOTT TRUDEAU INTL A","7025250","2011-12-04 09:00","2011","12","04","09:00","3.6","","-3.1","","62","","16","","17","","48.3","","102.13","","","","","","Mostly Cloudy"
"-73.75","45.47","MONTREAL/PIERRE ELLIOTT TRUDEAU INTL A","7025250","2011-12-04 10:00","2011","12","04","10:00","4.8","","-2.5","","59","","16","","24","","48.3","","102.11","","","","","","Mostly Cloudy"
"-73.75","45.47","MONTREAL/PIERRE ELLIOTT TRUDEAU INTL A","7025250","2011-12-04 11:00","2011","12","04","11:00","6.3","","-1.2","","59","","16","","17","","48.3","","101.98","","","","","","Mainly Clear"
"-73.75","45.47","MONTREAL/PIERRE ELLIOTT TRUDEAU INTL A","7025250","2011-12-04 12:00","2011","12","04","12:00","7.0","","-0.3","","60","","16","","30","","48.3","","101.86","","","","","","Mostly Cloudy"
"-73.75","45.47","MONTREAL/PIERRE ELLIOTT TRUDEAU INTL A","7025250","2011-12-04 13:00","2011","12","04","13:00","6.8","","-0.1","","61","","16","","28","","48.3","","101.76","","","","","","Mostly Cloudy"
"-73.75","45.47","MONTREAL/PIERRE ELLIOTT TRUDEAU INTL A","7025250","2011-12-04 14:00","2011","12","04","14:00","8.4","","1.4","","61","","16","","19","","48.3","","101.69","","","","","","Mostly Cloudy"
"-73.75","45.47","MONTREAL/PIERRE ELLIOTT TRUDEAU INTL A","7025250","2011-12-04 15:00","2011","12","04","15:00","8.5","","1.5","","61","","16","","26","","48.3","","101.59","","","","","","Mostly Cloudy"
"-73.75","45.47","MONTREAL/PIERRE ELLIOTT TRUDEAU INTL A","7025250","2011-12-04 16:00","2011","12","04","16:00","8.7","","1.1","","59","","18","","20","","48.3","","101.58","","","","","","Cloudy"
"-73.75","45.47","MONTREAL/PIERRE ELLIOTT TRUDEAU INTL A","7025250","2011-12-04 17:00","2011","12","04","17:00","8.5","","0.9","","59","","17","","17","","25.0","","101.67","","","","","","Cloudy"
"-73.75","45.47","MONTREAL/PIERRE ELLIOTT TRUDEAU INTL A","7025250","2011-12-04 18:00","2011","12","04","18:00","8.6","","1.0","","59","","16","","17","","25.0","","101.70","","","","","","Cloudy"
"-73.75","45.47","MONTREAL/PIERRE ELLIOTT TRUDEAU INTL A","7025250","2011-12-04 19:00","2011","12","04","19:00","8.4","","1.1","","60","","16","","26","","25.0","","101.72","","","","","","Cloudy"
"-73.75","45.47","MONTREAL/PIERRE ELLIOTT TRUDEAU INTL A","7025250","2011-12-04 20:00","2011","12","04","20:00","8.4","","1.3","","61","","16","","24","","25.0","","101.71","","","","","","Cloudy"
"-73.75","45.47","MONTREAL/PIERRE ELLIOTT TRUDEAU INTL A","7025250","2011-12-04 21:00","2011","12","04","21:00","8.6","","1.8","","62","","16","","20","","25.0","","101.71","","","","","","Cloudy"
"-73.75","45.47","MONTREAL/PIERRE ELLIOTT TRUDEAU INTL A","7025250","2011-12-04 22:00","2011","12","04","22:00","8.0","","2.5","","68","","16","","19","","25.0","","101.72","","","","","","Rain Showers"
"-73.75","45.47","MONTREAL/PIERRE ELLIOTT TRUDEAU INTL A","7025250","2011-12-04 23:00","2011","12","04","23:00","6.8","","3.8","","81","","14","","11","","25.0","","101.77","","","","","","Rain Showers"
"-73.75","45.47","MONTREAL/PIERRE ELLIOTT TRUDEAU INTL A","7025250","2011-12-05 00:00","2011","12","05","00:00","6.7","","4.4","","85","","15","","13","","25.0","","101.77","","","","","","Rain"
"-73.75","45.47","MONTREAL/PIERRE ELLIOTT TRUDEAU INTL A","7025250","2011-12-05 01:00","2011","12","05","01:00","6.5","","4.4","","86","","16","","15","","25.0","","101.84","","","","","","Rain"
"-73.75","45.47","MONTREAL/PIERRE ELLIOTT TRUDEAU INTL A","7025250","2011-12-05 02:00","2011","12","05","02:00","6.5","","4.7","","88","","15","","13","","25.0","","101.81","","","","","","Rain"
"-73.75","45.47","MONTREAL/PIERRE ELLIOTT TRUDEAU INTL A","7025250","2011-12-05 03:00","2011","12","05","03:00","6.7","","5.0","","89","","15","","9","","25.0","","101.83","","","","","","Rain"
"-73.75","45.47","MONTREAL/PIERRE ELLIOTT TRUDEAU INTL A","7025250","2011-12-05 04:00","2011","12","05","04:00","7.6","","5.5","","87","","18","","17","","25.0","","101.80","","","","","","Rain"
"-73.75","45.47","MONTREAL/PIERRE ELLIOTT TRUDEAU INTL A","7025250","2011-12-05 05:00","2011","12","05","05:00","7.4","","5.4","","87","","18","","17","","25.0","","101.80","","","","","","Rain"
"-73.75","45.47","MONTREAL/PIERRE ELLIOTT TRUDEAU INTL A","7025250","2011-12-05 06:00","2011","12","05","06:00","6.8","","4.7","","86","","17","","17","","25.0","","101.80","","","","","","Rain"
"-73.75","45.47","MONTREAL/PIERRE ELLIOTT TRUDEAU INTL A","7025250","2011-12-05 07:00","2011","12","05","07:00","6.6","","4.4","","86","","18","","15","","25.0","","101.83","","","","","","Drizzle"
"-73.75","45.47","MONTREAL/PIERRE ELLIOTT TRUDEAU INTL A","7025250","2011-12-05 08:00","2011","12","05","08:00","6.9","","4.8","","86","","16","","17","","12.9","","101.86","","","","","","Rain"
"-73.75","45.47","MONTREAL/PIERRE ELLIOTT TRUDEAU INTL A","7025250","2011-12-05 09:00","2011","12","05","09:00","6.9","","5.0","","88","","17","","15","","24.1","","101.91","","","","","","Rain"
"-73.75","45.47","MONTREAL/PIERRE ELLIOTT TRUDEAU INTL A","7025250","2011-12-05 10:00","2011","12","05","10:00","7.3","","5.7","","90","","17","","15","","9.7","","101.88","","","","","","Rain,Fog"
"-73.75","45.47","MONTREAL/PIERRE ELLIOTT TRUDEAU INTL A","7025250","2011-12-05 11:00","2011","12","05","11:00","7.8","","5.9","","88","","18","","11","","9.7","","101.88","","","","","","Rain,Fog"
"-73.75","45.47","MONTREAL/PIERRE ELLIOTT TRUDEAU INTL A","7025250","2011-12-05 12:00","2011","12","05","12:00","7.9","","6.3","","90","","18","","9","","8.0","","101.85","","","","","","Rain,Fog"
"-73.75","45.47","MONTREAL/PIERRE ELLIOTT TRUDEAU INTL A","7025250","2011-12-05 13:00","2011","12","05","13:00","8.5","","7.0","","90","","18","","11","","9.7","","101.76","","","","","","Rain,Fog"
"-73.75","45.47","MONTREAL/PIERRE ELLIOTT TRUDEAU INTL A","7025250","2011-12-05 14:00","2011","12","05","14:00","8.5","","7.0","","90","","19","","9","","9.7","","101.71","","","","","","Drizzle,Fog"
"-73.75","45.47","MONTREAL/PIERRE ELLIOTT TRUDEAU INTL A","7025250","2011-12-05 15:00","2011","12","05","15:00","8.4","","7.0","","91","","17","","7","","4.0","","101.68","","","","","","Drizzle,Fog"
"-73.75","45.47","MONTREAL/PIERRE ELLIOTT TRUDEAU INTL A","7025250","2011-12-05 16:00","2011","12","05","16:00","8.6","","7.2","","91","","26","","7","","4.0","","101.70","","","","","","Drizzle,Fog"
"-73.75","45.47","MONTREAL/PIERRE ELLIOTT TRUDEAU INTL A","7025250","2011-12-05 17:00","2011","12","05","17:00","8.2","","6.6","","90","","28","","11","","6.4","","101.72","","","","","","Rain,Fog"
"-73.75","45.47","MONTREAL/PIERRE ELLIOTT TRUDEAU INTL A","7025250","2011-12-05 18:00","2011","12","05","18:00","8.1","","6.5","","90","","24","","7","","6.4","","101.75","","","","","","Drizzle,Fog"
"-73.75","45.47","MONTREAL/PIERRE ELLIOTT TRUDEAU INTL A","7025250","2011-12-05 19:00","2011","12","05","19:00","7.8","","6.4","","91","","21","","7","","4.8","","101.72","","","","","","Rain,Fog"
"-73.75","45.47","MONTREAL/PIERRE ELLIOTT TRUDEAU INTL A","7025250","2011-12-05 20:00","2011","12","05","20:00","7.7","","6.4","","91","","25","","7","","2.8","","101.77","","","","","","Rain,Fog"
"-73.75","45.47","MONTREAL/PIERRE ELLIOTT TRUDEAU INTL A","7025250","2011-12-05 21:00","2011","12","05","21:00","7.6","","6.4","","92","","32","","9","","4.0","","101.74","","","","","","Rain,Fog"
"-73.75","45.47","MONTREAL/PIERRE ELLIOTT TRUDEAU INTL A","7025250","2011-12-05 22:00","2011","12","05","22:00","7.2","","5.7","","90","","36","","11","","8.0","","101.70","","","","","","Rain,Fog"
"-73.75","45.47","MONTREAL/PIERRE ELLIOTT TRUDEAU INTL A","7025250","2011-12-05 23:00","2011","12","05","23:00","6.8","","5.2","","90","","2","","13","","8.0","","101.66","","","","","","Rain,Fog"
"-73.75","45.47","MONTREAL/PIERRE ELLIOTT TRUDEAU INTL A","7025250","2011-12-06 00:00","2011","12","06","00:00","5.7","","4.0","","89","","35","","15","","9.7","","101.64","","","","","","Rain,Fog"
"-73.75","45.47","MONTREAL/PIERRE ELLIOTT TRUDEAU INTL A","7025250","2011-12-06 01:00","2011","12","06","01:00","5.2","","3.5","","89","","36","","13","","12.9","","101.63","","","","","","Rain"
"-73.75","45.47","MONTREAL/PIERRE ELLIOTT TRUDEAU INTL A","7025250","2011-12-06 02:00","2011","12","06","02:00","5.0","","3.3","","89","","2","","11","","12.9","","101.62","","","","","","Rain"
"-73.75","45.47","MONTREAL/PIERRE ELLIOTT TRUDEAU INTL A","7025250","2011-12-06 03:00","2011","12","06","03:00","4.8","","3.0","","88","","2","","15","","12.9","","101.61","","","","","","Rain"
"-73.75","45.47","MONTREAL/PIERRE ELLIOTT TRUDEAU INTL A","7025250","2011-12-06 04:00","2011","12","06","04:00","3.8","","1.8","","87","","2","","19","","12.9","","101.57","","","","","","Rain"
"-73.75","45.47","MONTREAL/PIERRE ELLIOTT TRUDEAU INTL A","7025250","2011-12-06 05:00","2011","12","06","05:00","3.2","","0.8","","84","","4","","17","","16.1","","101.56","","","","","","Rain"
"-73.75","45.47","MONTREAL/PIERRE ELLIOTT TRUDEAU INTL A","7025250","2011-12-06 06:00","2011","12","06","06:00","2.9","","0.6","","85","","3","","15","","16.1","","101.59","","","","","","Rain"
"-73.75","45.47","MONTREAL/PIERRE ELLIOTT TRUDEAU INTL A","7025250","2011-12-06 07:00","2011","12","06","07:00","2.5","","0.0","","84","","4","","24","","16.1","","101.60","","","","","","Rain"
"-73.75","45.47","MONTREAL/PIERRE ELLIOTT TRUDEAU INTL A","7025250","2011-12-06 08:00","2011","12","06","08:00","2.3","","-0.3","","83","","4","","20","","19.3","","101.63","","","","","","Rain"
"-73.75","45.47","MONTREAL/PIERRE ELLIOTT TRUDEAU INTL A","7025250","2011-12-06 09:00","2011","12","06","09:00","2.2","","-0.6","","82","","4","","20","","16.1","","101.63","","","","","","Rain"
"-73.75","45.47","MONTREAL/PIERRE ELLIOTT TRUDEAU INTL A","7025250","2011-12-06 10:00","2011","12","06","10:00","1.9","","-0.9","","82","","3","","22","","19.3","","101.66","","","","","","Cloudy"
"-73.75","45.47","MONTREAL/PIERRE ELLIOTT TRUDEAU INTL A","7025250","2011-12-06 11:00","2011","12","06","11:00","1.5","","-1.6","","80","","4","","20","","24.1","","101.60","","","","","","Snow Showers"
"-73.75","45.47","MONTREAL/PIERRE ELLIOTT TRUDEAU INTL A","7025250","2011-12-06 12:00","2011","12","06","12:00","1.5","","-1.8","","79","","2","","22","","24.1","","101.56","","","","","","Cloudy"
"-73.75","45.47","MONTREAL/PIERRE ELLIOTT TRUDEAU INTL A","7025250","2011-12-06 13:00","2011","12","06","13:00","1.4","","-2.0","","78","","2","","19","","24.1","","101.51","","","","","","Cloudy"
"-73.75","45.47","MONTREAL/PIERRE ELLIOTT TRUDEAU INTL A","7025250","2011-12-06 14:00","2011","12","06","14:00","1.3","","-2.3","","77","","3","","17","","24.1","","101.47","","","","","","Cloudy"
"-73.75","45.47","MONTREAL/PIERRE ELLIOTT TRUDEAU INTL A","7025250","2011-12-06 15:00","2011","12","06","15:00","1.3","","-2.4","","76","","2","","19","","24.1","","101.48","","","","","","Cloudy"
"-73.75","45.47","MONTREAL/PIERRE ELLIOTT TRUDEAU INTL A","7025250","2011-12-06 16:00","2011","12","06","16:00","1.1","","-2.5","","77","","3","","15","","24.1","","101.47","","","","","","Cloudy"
"-73.75","45.47","MONTREAL/PIERRE ELLIOTT TRUDEAU INTL A","7025250","2011-12-06 17:00","2011","12","06","17:00","1.1","","-2.4","","77","","3","","11","","25.0","","101.46","","","","","","Cloudy"
"-73.75","45.47","MONTREAL/PIERRE ELLIOTT TRUDEAU INTL A","7025250","2011-12-06 18:00","2011","12","06","18:00","1.2","","-2.3","","77","","2","","11","","25.0","","101.46","","","","","","Cloudy"
"-73.75","45.47","MONTREAL/PIERRE ELLIOTT TRUDEAU INTL A","7025250","2011-12-06 19:00","2011","12","06","19:00","0.9","","-2.5","","78","","3","","11","","25.0","","101.42","","","","","","Cloudy"
"-73.75","45.47","MONTREAL/PIERRE ELLIOTT TRUDEAU INTL A","7025250","2011-12-06 20:00","2011","12","06","20:00","0.5","","-2.7","","79","","2","","15","","25.0","","101.40","","","","","","Cloudy"
"-73.75","45.47","MONTREAL/PIERRE ELLIOTT TRUDEAU INTL A","7025250","2011-12-06 21:00","2011","12","06","21:00","0.4","","-2.9","","78","","3","","13","","25.0","","101.37","","","","","","Cloudy"
"-73.75","45.47","MONTREAL/PIERRE ELLIOTT TRUDEAU INTL A","7025250","2011-12-06 22:00","2011","12","06","22:00","0.2","","-3.0","","79","","2","","13","","25.0","","101.34","","","","","","Snow Showers"
"-73.75","45.47","MONTREAL/PIERRE ELLIOTT TRUDEAU INTL A","7025250","2011-12-06 23:00","2011","12","06","23:00","0.2","","-3.0","","79","","3","","11","","25.0","","101.31","","","","","","Snow"
"-73.75","45.47","MONTREAL/PIERRE ELLIOTT TRUDEAU INTL A","7025250","2011-12-07 00:00","2011","12","07","00:00","0.1","","-2.9","","80","","1","","11","","25.0","","101.23","","","","","","Cloudy"
"-73.75","45.47","MONTREAL/PIERRE ELLIOTT TRUDEAU INTL A","7025250","2011-12-07 01:00","2011","12","07","01:00","0.0","","-3.0","","80","","35","","6","","25.0","","101.18","","","","-2","","Cloudy"
"-73.75","45.47","MONTREAL/PIERRE ELLIOTT TRUDEAU INTL A","7025250","2011-12-07 02:00","2011","12","07","02:00","-0.2","","-3.0","","81","","2","","11","","25.0","","101.09","","","","-4","","Cloudy"
"-73.75","45.47","MONTREAL/PIERRE ELLIOTT TRUDEAU INTL A","7025250","2011-12-07 03:00","2011","12","07","03:00","-0.3","","-2.7","","84","","2","","9","","25.0","","101.06","","","","-3","","Cloudy"
"-73.75","45.47","MONTREAL/PIERRE ELLIOTT TRUDEAU INTL A","7025250","2011-12-07 04:00","2011","12","07","04:00","-0.2","","-2.6","","84","","1","","7","","16.1","","101.08","","","","-3","","Cloudy"
"-73.75","45.47","MONTREAL/PIERRE ELLIOTT TRUDEAU INTL A","7025250","2011-12-07 05:00","2011","12","07","05:00","-0.3","","-2.6","","84","","4","","6","","12.9","","101.06","","","","-2","","Cloudy"
"-73.75","45.47","MONTREAL/PIERRE ELLIOTT TRUDEAU INTL A","7025250","2011-12-07 06:00","2011","12","07","06:00","-0.3","","-2.5","","85","","2","","6","","12.9","","101.03","","","","-2","","Snow"
"-73.75","45.47","MONTREAL/PIERRE ELLIOTT TRUDEAU INTL A","7025250","2011-12-07 07:00","2011","12","07","07:00","-0.3","","-2.3","","86","","36","","6","","8.0","","101.06","","","","-2","","Snow,Fog"
"-73.75","45.47","MONTREAL/PIERRE ELLIOTT TRUDEAU INTL A","7025250","2011-12-07 08:00","2011","12","07","08:00","0.1","","-2.2","","84","","","","0","","8.0","","101.02","","","","","","Snow"
"-73.75","45.47","MONTREAL/PIERRE ELLIOTT TRUDEAU INTL A","7025250","2011-12-07 09:00","2011","12","07","09:00","0.4","","-2.1","","83","","","","0","","9.7","","101.02","","","","","","Snow"
"-73.75","45.47","MONTREAL/PIERRE ELLIOTT TRUDEAU INTL A","7025250","2011-12-07 10:00","2011","12","07","10:00","0.5","","-1.9","","84","","36","","4","","8.0","","100.98","","","","","","Haze"
"-73.75","45.47","MONTREAL/PIERRE ELLIOTT TRUDEAU INTL A","7025250","2011-12-07 11:00","2011","12","07","11:00","0.9","","-1.8","","82","","","","0","","9.7","","100.88","","","","","","Haze"
"-73.75","45.47","MONTREAL/PIERRE ELLIOTT TRUDEAU INTL A","7025250","2011-12-07 12:00","2011","12","07","12:00","1.3","","-1.5","","82","","","","0","","9.7","","100.79","","","","","","Haze"
"-73.75","45.47","MONTREAL/PIERRE ELLIOTT TRUDEAU INTL A","7025250","2011-12-07 13:00","2011","12","07","13:00","1.7","","-1.4","","80","","29","","4","","8.0","","100.65","","","","","","Haze"
"-73.75","45.47","MONTREAL/PIERRE ELLIOTT TRUDEAU INTL A","7025250","2011-12-07 14:00","2011","12","07","14:00","1.9","","-1.2","","80","","","","0","","9.7","","100.59","","","","","","Haze"
"-73.75","45.47","MONTREAL/PIERRE ELLIOTT TRUDEAU INTL A","7025250","2011-12-07 15:00","2011","12","07","15:00","1.9","","-1.2","","80","","","","0","","9.7","","100.55","","","","","","Haze"
"-73.75","45.47","MONTREAL/PIERRE ELLIOTT TRUDEAU INTL A","7025250","2011-12-07 16:00","2011","12","07","16:00","1.8","","-1.2","","80","","33","","4","","9.7","","100.53","","","","","","Haze"
"-73.75","45.47","MONTREAL/PIERRE ELLIOTT TRUDEAU INTL A","7025250","2011-12-07 17:00","2011","12","07","17:00","1.8","","-0.9","","82","","30","","7","","12.9","","100.49","","","","","","Cloudy"
"-73.75","45.47","MONTREAL/PIERRE ELLIOTT TRUDEAU INTL A","7025250","2011-12-07 18:00","2011","12","07","18:00","1.6","","-0.6","","85","","31","","6","","8.0","","100.43","","","","","","Drizzle"
"-73.75","45.47","MONTREAL/PIERRE ELLIOTT TRUDEAU INTL A","7025250","2011-12-07 19:00","2011","12","07","19:00","0.9","","-2.0","","81","","30","","13","","16.1","","100.44","","","","","","Cloudy"
"-73.75","45.47","MONTREAL/PIERRE ELLIOTT TRUDEAU INTL A","7025250","2011-12-07 20:00","2011","12","07","20:00","0.5","","-1.5","","86","","27","","9","","6.4","","100.40","","","","","","Snow,Fog"
"-73.75","45.47","MONTREAL/PIERRE ELLIOTT TRUDEAU INTL A","7025250","2011-12-07 21:00","2011","12","07","21:00","0.4","","-1.9","","85","","26","","9","","8.0","","100.32","","","","","","Snow,Haze"
"-73.75","45.47","MONTREAL/PIERRE ELLIOTT TRUDEAU INTL A","7025250","2011-12-07 22:00","2011","12","07","22:00","-0.1","","-2.2","","86","","25","","15","","2.8","","100.34","","","","-5","","Snow"
"-73.75","45.47","MONTREAL/PIERRE ELLIOTT TRUDEAU INTL A","7025250","2011-12-07 23:00","2011","12","07","23:00","-0.5","","-2.7","","85","","25","","17","","6.4","","100.33","","","","-5","","Snow"
"-73.75","45.47","MONTREAL/PIERRE ELLIOTT TRUDEAU INTL A","7025250","2011-12-08 00:00","2011","12","08","00:00","-0.6","","-4.6","","74","","29","","13","","9.7","","100.24","","","","-5","","Snow"
"-73.75","45.47","MONTREAL/PIERRE ELLIOTT TRUDEAU INTL A","7025250","2011-12-08 01:00","2011","12","08","01:00","-0.6","","-5.7","","68","","31","","19","","25.0","","100.17","","","","-6","","Mostly Cloudy"
"-73.75","45.47","MONTREAL/PIERRE ELLIOTT TRUDEAU INTL A","7025250","2011-12-08 02:00","2011","12","08","02:00","-1.0","","-6.2","","68","","29","","17","","25.0","","100.19","","","","-6","","Cloudy"
"-73.75","45.47","MONTREAL/PIERRE ELLIOTT TRUDEAU INTL A","7025250","2011-12-08 03:00","2011","12","08","03:00","-1.4","","-6.4","","69","","28","","17","","25.0","","100.20","","","","-7","","Mostly Cloudy"
"-73.75","45.47","MONTREAL/PIERRE ELLIOTT TRUDEAU INTL A","7025250","2011-12-08 04:00","2011","12","08","04:00","-1.6","","-6.7","","68","","28","","20","","25.0","","100.25","","","","-7","","Mostly Cloudy"
"-73.75","45.47","MONTREAL/PIERRE ELLIOTT TRUDEAU INTL A","7025250","2011-12-08 05:00","2011","12","08","05:00","-2.5","","-7.1","","71","","27","","13","","25.0","","100.30","","","","-7","","Mainly Clear"
"-73.75","45.47","MONTREAL/PIERRE ELLIOTT TRUDEAU INTL A","7025250","2011-12-08 06:00","2011","12","08","06:00","-2.6","","-6.9","","72","","27","","15","","25.0","","100.33","","","","-8","","Mainly Clear"
"-73.75","45.47","MONTREAL/PIERRE ELLIOTT TRUDEAU INTL A","7025250","2011-12-08 07:00","2011","12","08","07:00","-2.3","","-5.9","","76","","27","","15","","24.1","","100.38","","","","-7","","Mainly Clear"
"-73.75","45.47","MONTREAL/PIERRE ELLIOTT TRUDEAU INTL A","7025250","2011-12-08 08:00","2011","12","08","08:00","-1.0","","-4.5","","77","","27","","20","","19.3","","100.45","","","","-7","","Snow"
"-73.75","45.47","MONTREAL/PIERRE ELLIOTT TRUDEAU INTL A","7025250","2011-12-08 09:00","2011","12","08","09:00","-0.4","","-3.6","","79","","27","","22","","24.1","","100.52","","","","-6","","Cloudy"
"-73.75","45.47","MONTREAL/PIERRE ELLIOTT TRUDEAU INTL A","7025250","2011-12-08 10:00","2011","12","08","10:00","0.0","","-4.1","","74","","27","","33","","24.1","","100.67","","","","-7","","Cloudy"
"-73.75","45.47","MONTREAL/PIERRE ELLIOTT TRUDEAU INTL A","7025250","2011-12-08 11:00","2011","12","08","11:00","0.4","","-4.4","","70","","27","","33","","24.1","","100.73","","","","","","Snow Showers"
"-73.75","45.47","MONTREAL/PIERRE ELLIOTT TRUDEAU INTL A","7025250","2011-12-08 12:00","2011","12","08","12:00","1.1","","-5.4","","62","","27","","39","","48.3","","100.84","","","","","","Mainly Clear"
"-73.75","45.47","MONTREAL/PIERRE ELLIOTT TRUDEAU INTL A","7025250","2011-12-08 13:00","2011","12","08","13:00","1.5","","-5.6","","59","","27","","32","","48.3","","100.92","","","","","","Mainly Clear"
"-73.75","45.47","MONTREAL/PIERRE ELLIOTT TRUDEAU INTL A","7025250","2011-12-08 14:00","2011","12","08","14:00","1.8","","-7.4","","50","","27","","26","","48.3","","100.97","","","","","","Mainly Clear"
"-73.75","45.47","MONTREAL/PIERRE ELLIOTT TRUDEAU INTL A","7025250","2011-12-08 15:00","2011","12","08","15:00","1.6","","-7.8","","50","","26","","28","","48.3","","101.05","","","","","","Mainly Clear"
"-73.75","45.47","MONTREAL/PIERRE ELLIOTT TRUDEAU INTL A","7025250","2011-12-08 16:00","2011","12","08","16:00","0.7","","-8.0","","52","","25","","17","","48.3","","101.10","","","","","","Mainly Clear"
"-73.75","45.47","MONTREAL/PIERRE ELLIOTT TRUDEAU INTL A","7025250","2011-12-08 17:00","2011","12","08","17:00","0.0","","-8.6","","52","","24","","7","","25.0","","101.13","","","","-2","","Clear"
"-73.75","45.47","MONTREAL/PIERRE ELLIOTT TRUDEAU INTL A","7025250","2011-12-08 18:00","2011","12","08","18:00","1.6","","-6.2","","56","","22","","15","","25.0","","101.17","","","","","","Mostly Cloudy"
"-73.75","45.47","MONTREAL/PIERRE ELLIOTT TRUDEAU INTL A","7025250","2011-12-08 19:00","2011","12","08","19:00","2.6","","-6.0","","53","","22","","32","","25.0","","101.21","","","","","","Mostly Cloudy"
"-73.75","45.47","MONTREAL/PIERRE ELLIOTT TRUDEAU INTL A","7025250","2011-12-08 20:00","2011","12","08","20:00","2.2","","-5.1","","58","","24","","22","","25.0","","101.22","","","","","","Mainly Clear"
"-73.75","45.47","MONTREAL/PIERRE ELLIOTT TRUDEAU INTL A","7025250","2011-12-08 21:00","2011","12","08","21:00","2.0","","-6.3","","54","","25","","35","","25.0","","101.26","","","","","","Mainly Clear"
"-73.75","45.47","MONTREAL/PIERRE ELLIOTT TRUDEAU INTL A","7025250","2011-12-08 22:00","2011","12","08","22:00","1.8","","-6.2","","55","","25","","24","","25.0","","101.34","","","","","","Mainly Clear"
"-73.75","45.47","MONTREAL/PIERRE ELLIOTT TRUDEAU INTL A","7025250","2011-12-08 23:00","2011","12","08","23:00","1.7","","-5.9","","57","","25","","20","","25.0","","101.40","","","","","","Mostly Cloudy"
"-73.75","45.47","MONTREAL/PIERRE ELLIOTT TRUDEAU INTL A","7025250","2011-12-09 00:00","2011","12","09","00:00","1.5","","-5.9","","58","","24","","19","","25.0","","101.47","","","","","","Mostly Cloudy"
"-73.75","45.47","MONTREAL/PIERRE ELLIOTT TRUDEAU INTL A","7025250","2011-12-09 01:00","2011","12","09","01:00","1.8","","-5.8","","57","","26","","15","","25.0","","101.53","","","","","","Cloudy"
"-73.75","45.47","MONTREAL/PIERRE ELLIOTT TRUDEAU INTL A","7025250","2011-12-09 02:00","2011","12","09","02:00","1.3","","-5.4","","61","","26","","13","","25.0","","101.58","","","","","","Mostly Cloudy"
"-73.75","45.47","MONTREAL/PIERRE ELLIOTT TRUDEAU INTL A","7025250","2011-12-09 03:00","2011","12","09","03:00","1.2","","-5.1","","63","","23","","11","","25.0","","101.64","","","","","","Cloudy"
"-73.75","45.47","MONTREAL/PIERRE ELLIOTT TRUDEAU INTL A","7025250","2011-12-09 04:00","2011","12","09","04:00","0.9","","-4.8","","66","","24","","11","","25.0","","101.69","","","","","","Cloudy"
"-73.75","45.47","MONTREAL/PIERRE ELLIOTT TRUDEAU INTL A","7025250","2011-12-09 05:00","2011","12","09","05:00","0.6","","-4.8","","67","","22","","9","","25.0","","101.70","","","","","","Mainly Clear"
"-73.75","45.47","MONTREAL/PIERRE ELLIOTT TRUDEAU INTL A","7025250","2011-12-09 06:00","2011","12","09","06:00","0.4","","-4.8","","68","","21","","13","","25.0","","101.70","","","","","","Mainly Clear"
"-73.75","45.47","MONTREAL/PIERRE ELLIOTT TRUDEAU INTL A","7025250","2011-12-09 07:00","2011","12","09","07:00","0.4","","-4.5","","70","","18","","13","","24.1","","101.74","","","","","","Mostly Cloudy"
"-73.75","45.47","MONTREAL/PIERRE ELLIOTT TRUDEAU INTL A","7025250","2011-12-09 08:00","2011","12","09","08:00","1.9","","-4.2","","64","","22","","22","","24.1","","101.75","","","","","","Cloudy"
"-73.75","45.47","MONTREAL/PIERRE ELLIOTT TRUDEAU INTL A","7025250","2011-12-09 09:00","2011","12","09","09:00","2.6","","-4.0","","62","","21","","22","","24.1","","101.79","","","","","","Cloudy"
"-73.75","45.47","MONTREAL/PIERRE ELLIOTT TRUDEAU INTL A","7025250","2011-12-09 10:00","2011","12","09","10:00","1.4","","-2.8","","74","","23","","32","","4.0","","101.86","","","","","","Snow Showers"
"-73.75","45.47","MONTREAL/PIERRE ELLIOTT TRUDEAU INTL A","7025250","2011-12-09 11:00","2011","12","09","11:00","1.0","","-1.7","","82","","21","","15","","3.2","","101.79","","","","","","Snow Showers"
"-73.75","45.47","MONTREAL/PIERRE ELLIOTT TRUDEAU INTL A","7025250","2011-12-09 12:00","2011","12","09","12:00","0.7","","-1.3","","86","","20","","15","","3.2","","101.67","","","","","","Snow Showers"
"-73.75","45.47","MONTREAL/PIERRE ELLIOTT TRUDEAU INTL A","7025250","2011-12-09 13:00","2011","12","09","13:00","0.7","","-1.3","","86","","17","","11","","3.2","","101.61","","","","","","Snow Showers"
"-73.75","45.47","MONTREAL/PIERRE ELLIOTT TRUDEAU INTL A","7025250","2011-12-09 14:00","2011","12","09","14:00","0.3","","-1.4","","88","","15","","9","","2.4","","101.52","","","","","","Snow"
"-73.75","45.47","MONTREAL/PIERRE ELLIOTT TRUDEAU INTL A","7025250","2011-12-09 15:00","2011","12","09","15:00","0.6","","-1.2","","88","","15","","7","","3.6","","101.48","","","","","","Snow"
"-73.75","45.47","MONTREAL/PIERRE ELLIOTT TRUDEAU INTL A","7025250","2011-12-09 16:00","2011","12","09","16:00","1.2","","-0.9","","86","","17","","13","","6.4","","101.48","","","","","","Rain"
"-73.75","45.47","MONTREAL/PIERRE ELLIOTT TRUDEAU INTL A","7025250","2011-12-09 17:00","2011","12","09","17:00","1.5","","-0.7","","85","","17","","11","","12.9","","101.47","","","","","","Cloudy"
"-73.75","45.47","MONTREAL/PIERRE ELLIOTT TRUDEAU INTL A","7025250","2011-12-09 18:00","2011","12","09","18:00","2.5","","-0.5","","81","","20","","9","","16.1","","101.49","","","","","","Cloudy"
"-73.75","45.47","MONTREAL/PIERRE ELLIOTT TRUDEAU INTL A","7025250","2011-12-09 19:00","2011","12","09","19:00","2.9","","-0.8","","77","","22","","19","","16.1","","101.50","","","","","","Rain Showers"
"-73.75","45.47","MONTREAL/PIERRE ELLIOTT TRUDEAU INTL A","7025250","2011-12-09 20:00","2011","12","09","20:00","2.4","","-0.6","","81","","22","","24","","12.9","","101.52","","","","","","Rain"
"-73.75","45.47","MONTREAL/PIERRE ELLIOTT TRUDEAU INTL A","7025250","2011-12-09 21:00","2011","12","09","21:00","2.4","","-0.6","","81","","22","","28","","25.0","","101.50","","","","","","Cloudy"
"-73.75","45.47","MONTREAL/PIERRE ELLIOTT TRUDEAU INTL A","7025250","2011-12-09 22:00","2011","12","09","22:00","1.8","","-0.3","","86","","23","","26","","12.9","","101.53","","","","","","Rain"
"-73.75","45.47","MONTREAL/PIERRE ELLIOTT TRUDEAU INTL A","7025250","2011-12-09 23:00","2011","12","09","23:00","1.3","","-0.9","","85","","25","","20","","8.0","","101.57","","","","","","Snow"
"-73.75","45.47","MONTREAL/PIERRE ELLIOTT TRUDEAU INTL A","7025250","2011-12-10 00:00","2011","12","10","00:00","0.5","","-1.7","","85","","25","","17","","9.7","","101.56","","","","","","Snow"
"-73.75","45.47","MONTREAL/PIERRE ELLIOTT TRUDEAU INTL A","7025250","2011-12-10 01:00","2011","12","10","01:00","0.1","","-1.7","","88","","25","","15","","4.8","","101.58","","","","","","Snow"
"-73.75","45.47","MONTREAL/PIERRE ELLIOTT TRUDEAU INTL A","7025250","2011-12-10 02:00","2011","12","10","02:00","-2.0","","-4.8","","81","","31","","19","","6.4","","101.70","","","","-8","","Snow"
"-73.75","45.47","MONTREAL/PIERRE ELLIOTT TRUDEAU INTL A","7025250","2011-12-10 03:00","2011","12","10","03:00","-1.4","","-6.0","","71","","27","","13","","25.0","","101.75","","","","-6","","Cloudy"
"-73.75","45.47","MONTREAL/PIERRE ELLIOTT TRUDEAU INTL A","7025250","2011-12-10 04:00","2011","12","10","04:00","-1.6","","-7.1","","66","","27","","17","","25.0","","101.80","","","","-7","","Cloudy"
"-73.75","45.47","MONTREAL/PIERRE ELLIOTT TRUDEAU INTL A","7025250","2011-12-10 05:00","2011","12","10","05:00","-2.3","","-8.4","","63","","27","","15","","25.0","","101.87","","","","-7","","Mostly Cloudy"
"-73.75","45.47","MONTREAL/PIERRE ELLIOTT TRUDEAU INTL A","7025250","2011-12-10 06:00","2011","12","10","06:00","-3.9","","-10.3","","61","","28","","15","","25.0","","101.95","","","","-9","","Clear"
"-73.75","45.47","MONTREAL/PIERRE ELLIOTT TRUDEAU INTL A","7025250","2011-12-10 07:00","2011","12","10","07:00","-3.9","","-9.7","","64","","25","","11","","24.1","","102.03","","","","-8","","Clear"
"-73.75","45.47","MONTREAL/PIERRE ELLIOTT TRUDEAU INTL A","7025250","2011-12-10 08:00","2011","12","10","08:00","-5.0","","-9.3","","72","","27","","6","","24.1","","102.10","","","","-8","","Clear"
"-73.75","45.47","MONTREAL/PIERRE ELLIOTT TRUDEAU INTL A","7025250","2011-12-10 09:00","2011","12","10","09:00","-3.5","","-8.2","","70","","29","","9","","24.1","","102.15","","","","-7","","Mainly Clear"
"-73.75","45.47","MONTREAL/PIERRE ELLIOTT TRUDEAU INTL A","7025250","2011-12-10 10:00","2011","12","10","10:00","-2.5","","-8.3","","64","","28","","13","","48.3","","102.16","","","","-7","","Mainly Clear"
"-73.75","45.47","MONTREAL/PIERRE ELLIOTT TRUDEAU INTL A","7025250","2011-12-10 11:00","2011","12","10","11:00","-1.9","","-8.0","","63","","30","","15","","48.3","","102.14","","","","-7","","Mainly Clear"
"-73.75","45.47","MONTREAL/PIERRE ELLIOTT TRUDEAU INTL A","7025250","2011-12-10 12:00","2011","12","10","12:00","-1.6","","-8.0","","62","","29","","15","","48.3","","102.11","","","","-6","","Mainly Clear"
"-73.75","45.47","MONTREAL/PIERRE ELLIOTT TRUDEAU INTL A","7025250","2011-12-10 13:00","2011","12","10","13:00","-1.2","","-7.2","","64","","22","","17","","48.3","","102.09","","","","-6","","Mainly Clear"
"-73.75","45.47","MONTREAL/PIERRE ELLIOTT TRUDEAU INTL A","7025250","2011-12-10 14:00","2011","12","10","14:00","-1.4","","-6.3","","69","","31","","20","","16.1","","102.08","","","","-7","","Rain Showers"
"-73.75","45.47","MONTREAL/PIERRE ELLIOTT TRUDEAU INTL A","7025250","2011-12-10 15:00","2011","12","10","15:00","-2.2","","-7.7","","66","","28","","20","","12.9","","102.13","","","","-8","","Snow Showers"
"-73.75","45.47","MONTREAL/PIERRE ELLIOTT TRUDEAU INTL A","7025250","2011-12-10 16:00","2011","12","10","16:00","-2.4","","-7.2","","70","","23","","11","","24.1","","102.18","","","","-6","","Mostly Cloudy"
"-73.75","45.47","MONTREAL/PIERRE ELLIOTT TRUDEAU INTL A","7025250","2011-12-10 17:00","2011","12","10","17:00","-2.7","","-7.6","","69","","25","","17","","25.0","","102.22","","","","-8","","Mainly Clear"
"-73.75","45.47","MONTREAL/PIERRE ELLIOTT TRUDEAU INTL A","7025250","2011-12-10 18:00","2011","12","10","18:00","-3.3","","-8.2","","69","","24","","13","","25.0","","102.24","","","","-8","","Mainly Clear"
"-73.75","45.47","MONTREAL/PIERRE ELLIOTT TRUDEAU INTL A","7025250","2011-12-10 19:00","2011","12","10","19:00","-2.9","","-8.1","","67","","23","","15","","25.0","","102.28","","","","-8","","Mainly Clear"
"-73.75","45.47","MONTREAL/PIERRE ELLIOTT TRUDEAU INTL A","7025250","2011-12-10 20:00","2011","12","10","20:00","-3.6","","-8.2","","70","","26","","11","","25.0","","102.35","","","","-8","","Clear"
"-73.75","45.47","MONTREAL/PIERRE ELLIOTT TRUDEAU INTL A","7025250","2011-12-10 21:00","2011","12","10","21:00","-3.9","","-8.6","","70","","26","","11","","25.0","","102.40","","","","-8","","Mainly Clear"
"-73.75","45.47","MONTREAL/PIERRE ELLIOTT TRUDEAU INTL A","7025250","2011-12-10 22:00","2011","12","10","22:00","-4.2","","-8.0","","75","","26","","7","","25.0","","102.44","","","","-7","","Mostly Cloudy"
"-73.75","45.47","MONTREAL/PIERRE ELLIOTT TRUDEAU INTL A","7025250","2011-12-10 23:00","2011","12","10","23:00","-4.5","","-8.2","","75","","34","","4","","25.0","","102.49","","","","-6","","Mostly Cloudy"
"-73.75","45.47","MONTREAL/PIERRE ELLIOTT TRUDEAU INTL A","7025250","2011-12-11 00:00","2011","12","11","00:00","-4.7","","-8.1","","77","","31","","6","","25.0","","102.55","","","","-7","","Mostly Cloudy"
"-73.75","45.47","MONTREAL/PIERRE ELLIOTT TRUDEAU INTL A","7025250","2011-12-11 01:00","2011","12","11","01:00","-5.0","","-8.2","","78","","34","","7","","25.0","","102.54","","","","-8","","Mostly Cloudy"
"-73.75","45.47","MONTREAL/PIERRE ELLIOTT TRUDEAU INTL A","7025250","2011-12-11 02:00","2011","12","11","02:00","-4.7","","-7.9","","78","","","","0","","25.0","","102.63","","","","","","Cloudy"
"-73.75","45.47","MONTREAL/PIERRE ELLIOTT TRUDEAU INTL A","7025250","2011-12-11 03:00","2011","12","11","03:00","-3.9","","-7.9","","74","","","","0","","25.0","","102.68","","","","","","Cloudy"
"-73.75","45.47","MONTREAL/PIERRE ELLIOTT TRUDEAU INTL A","7025250","2011-12-11 04:00","2011","12","11","04:00","-3.6","","-7.4","","75","","26","","7","","25.0","","102.68","","","","-7","","Mostly Cloudy"
"-73.75","45.47","MONTREAL/PIERRE ELLIOTT TRUDEAU INTL A","7025250","2011-12-11 05:00","2011","12","11","05:00","-3.6","","-7.8","","73","","24","","13","","25.0","","102.72","","","","-8","","Mostly Cloudy"
"-73.75","45.47","MONTREAL/PIERRE ELLIOTT TRUDEAU INTL A","7025250","2011-12-11 06:00","2011","12","11","06:00","-4.4","","-9.0","","70","","24","","9","","25.0","","102.78","","","","-8","","Mainly Clear"
"-73.75","45.47","MONTREAL/PIERRE ELLIOTT TRUDEAU INTL A","7025250","2011-12-11 07:00","2011","12","11","07:00","-4.2","","-8.1","","74","","25","","15","","48.3","","102.85","","","","-10","","Mostly Cloudy"
"-73.75","45.47","MONTREAL/PIERRE ELLIOTT TRUDEAU INTL A","7025250","2011-12-11 08:00","2011","12","11","08:00","-4.5","","-8.1","","76","","26","","11","","48.3","","102.87","","","","-9","","Mainly Clear"
"-73.75","45.47","MONTREAL/PIERRE ELLIOTT TRUDEAU INTL A","7025250","2011-12-11 09:00","2011","12","11","09:00","-3.2","","-8.0","","69","","23","","19","","48.3","","102.90","","","","-9","","Mainly Clear"
"-73.75","45.47","MONTREAL/PIERRE ELLIOTT TRUDEAU INTL A","7025250","2011-12-11 10:00","2011","12","11","10:00","-2.3","","-8.1","","64","","23","","26","","48.3","","102.92","","","","-9","","Mostly Cloudy"
"-73.75","45.47","MONTREAL/PIERRE ELLIOTT TRUDEAU INTL A","7025250","2011-12-11 11:00","2011","12","11","11:00","-1.4","","-8.3","","59","","23","","22","","48.3","","102.85","","","","-7","","Mostly Cloudy"
"-73.75","45.47","MONTREAL/PIERRE ELLIOTT TRUDEAU INTL A","7025250","2011-12-11 12:00","2011","12","11","12:00","-0.7","","-8.3","","56","","22","","26","","24.1","","102.80","","","","-7","","Cloudy"
"-73.75","45.47","MONTREAL/PIERRE ELLIOTT TRUDEAU INTL A","7025250","2011-12-11 13:00","2011","12","11","13:00","0.1","","-7.3","","57","","22","","26","","24.1","","102.69","","","","","","Cloudy"
"-73.75","45.47","MONTREAL/PIERRE ELLIOTT TRUDEAU INTL A","7025250","2011-12-11 14:00","2011","12","11","14:00","1.3","","-5.3","","61","","22","","20","","48.3","","102.63","","","","","","Mainly Clear"
"-73.75","45.47","MONTREAL/PIERRE ELLIOTT TRUDEAU INTL A","7025250","2011-12-11 15:00","2011","12","11","15:00","1.6","","-5.7","","58","","21","","28","","48.3","","102.57","","","","","","Mainly Clear"
"-73.75","45.47","MONTREAL/PIERRE ELLIOTT TRUDEAU INTL A","7025250","2011-12-11 16:00","2011","12","11","16:00","1.5","","-6.1","","57","","22","","30","","48.3","","102.55","","","","","","Mainly Clear"
"-73.75","45.47","MONTREAL/PIERRE ELLIOTT TRUDEAU INTL A","7025250","2011-12-11 17:00","2011","12","11","17:00","1.1","","-6.5","","57","","22","","24","","25.0","","102.56","","","","","","Mainly Clear"
"-73.75","45.47","MONTREAL/PIERRE ELLIOTT TRUDEAU INTL A","7025250","2011-12-11 18:00","2011","12","11","18:00","1.5","","-6.3","","56","","22","","19","","25.0","","102.54","","","","","","Mainly Clear"
"-73.75","45.47","MONTREAL/PIERRE ELLIOTT TRUDEAU INTL A","7025250","2011-12-11 19:00","2011","12","11","19:00","-1.2","","-6.6","","67","","19","","15","","25.0","","102.53","","","","-6","","Mainly Clear"
"-73.75","45.47","MONTREAL/PIERRE ELLIOTT TRUDEAU INTL A","7025250","2011-12-11 20:00","2011","12","11","20:00","-0.9","","-6.5","","66","","19","","15","","25.0","","102.49","","","","-6","","Clear"
"-73.75","45.47","MONTREAL/PIERRE ELLIOTT TRUDEAU INTL A","7025250","2011-12-11 21:00","2011","12","11","21:00","-1.2","","-6.6","","67","","18","","19","","25.0","","102.44","","","","-7","","Clear"
"-73.75","45.47","MONTREAL/PIERRE ELLIOTT TRUDEAU INTL A","7025250","2011-12-11 22:00","2011","12","11","22:00","-0.2","","-7.4","","58","","20","","15","","25.0","","102.42","","","","-5","","Clear"
"-73.75","45.47","MONTREAL/PIERRE ELLIOTT TRUDEAU INTL A","7025250","2011-12-11 23:00","2011","12","11","23:00","-0.6","","-7.2","","61","","20","","11","","25.0","","102.41","","","","-4","","Clear"
"-73.75","45.47","MONTREAL/PIERRE ELLIOTT TRUDEAU INTL A","7025250","2011-12-12 00:00","2011","12","12","00:00","0.2","","-7.0","","58","","24","","9","","25.0","","102.42","","","","","","Clear"
"-73.75","45.47","MONTREAL/PIERRE ELLIOTT TRUDEAU INTL A","7025250","2011-12-12 01:00","2011","12","12","01:00","0.1","","-8.1","","54","","25","","7","","25.0","","102.43","","","","","","Clear"
"-73.75","45.47","MONTREAL/PIERRE ELLIOTT TRUDEAU INTL A","7025250","2011-12-12 02:00","2011","12","12","02:00","0.0","","-9.4","","49","","24","","9","","25.0","","102.47","","","","-3","","Clear"
"-73.75","45.47","MONTREAL/PIERRE ELLIOTT TRUDEAU INTL A","7025250","2011-12-12 03:00","2011","12","12","03:00","1.1","","-7.4","","53","","24","","15","","25.0","","102.53","","","","","","Clear"
"-73.75","45.47","MONTREAL/PIERRE ELLIOTT TRUDEAU INTL A","7025250","2011-12-12 04:00","2011","12","12","04:00","0.2","","-7.8","","55","","24","","9","","25.0","","102.55","","","","","","Clear"
"-73.75","45.47","MONTREAL/PIERRE ELLIOTT TRUDEAU INTL A","7025250","2011-12-12 05:00","2011","12","12","05:00","0.0","","-7.8","","56","","24","","9","","25.0","","102.59","","","","-3","","Clear"
"-73.75","45.47","MONTREAL/PIERRE ELLIOTT TRUDEAU INTL A","7025250","2011-12-12 06:00","2011","12","12","06:00","0.4","","-7.0","","58","","23","","15","","25.0","","102.60","","","","","","Clear"
"-73.75","45.47","MONTREAL/PIERRE ELLIOTT TRUDEAU INTL A","7025250","2011-12-12 07:00","2011","12","12","07:00","-0.3","","-7.3","","59","","24","","9","","48.3","","102.64","","","","-3","","Clear"
"-73.75","45.47","MONTREAL/PIERRE ELLIOTT TRUDEAU INTL A","7025250","2011-12-12 08:00","2011","12","12","08:00","1.9","","-7.1","","51","","23","","26","","48.3","","102.64","","","","","","Clear"
"-73.75","45.47","MONTREAL/PIERRE ELLIOTT TRUDEAU INTL A","7025250","2011-12-12 09:00","2011","12","12","09:00","2.3","","-7.0","","50","","23","","24","","48.3","","102.66","","","","","","Clear"
"-73.75","45.47","MONTREAL/PIERRE ELLIOTT TRUDEAU INTL A","7025250","2011-12-12 10:00","2011","12","12","10:00","3.2","","-6.6","","49","","22","","17","","48.3","","102.66","","","","","","Clear"
"-73.75","45.47","MONTREAL/PIERRE ELLIOTT TRUDEAU INTL A","7025250","2011-12-12 11:00","2011","12","12","11:00","4.0","","-5.8","","49","","24","","22","","48.3","","102.62","","","","","","Clear"
"-73.75","45.47","MONTREAL/PIERRE ELLIOTT TRUDEAU INTL A","7025250","2011-12-12 12:00","2011","12","12","12:00","4.3","","-5.6","","49","","24","","24","","48.3","","102.55","","","","","","Clear"
"-73.75","45.47","MONTREAL/PIERRE ELLIOTT TRUDEAU INTL A","7025250","2011-12-12 13:00","2011","12","12","13:00","5.1","","-4.8","","49","","25","","20","","48.3","","102.49","","","","","","Clear"
"-73.75","45.47","MONTREAL/PIERRE ELLIOTT TRUDEAU INTL A","7025250","2011-12-12 14:00","2011","12","12","14:00","5.4","","-4.3","","50","","26","","22","","48.3","","102.49","","","","","","Clear"
"-73.75","45.47","MONTREAL/PIERRE ELLIOTT TRUDEAU INTL A","7025250","2011-12-12 15:00","2011","12","12","15:00","5.0","","-4.2","","51","","25","","19","","48.3","","102.49","","","","","","Clear"
"-73.75","45.47","MONTREAL/PIERRE ELLIOTT TRUDEAU INTL A","7025250","2011-12-12 16:00","2011","12","12","16:00","4.0","","-4.5","","54","","26","","17","","48.3","","102.52","","","","","","Mainly Clear"
"-73.75","45.47","MONTREAL/PIERRE ELLIOTT TRUDEAU INTL A","7025250","2011-12-12 17:00","2011","12","12","17:00","2.2","","-5.1","","58","","27","","7","","25.0","","102.52","","","","","","Clear"
"-73.75","45.47","MONTREAL/PIERRE ELLIOTT TRUDEAU INTL A","7025250","2011-12-12 18:00","2011","12","12","18:00","1.7","","-5.1","","61","","33","","4","","25.0","","102.49","","","","","","Clear"
"-73.75","45.47","MONTREAL/PIERRE ELLIOTT TRUDEAU INTL A","7025250","2011-12-12 19:00","2011","12","12","19:00","0.4","","-5.5","","65","","27","","7","","25.0","","102.53","","","","","","Clear"
"-73.75","45.47","MONTREAL/PIERRE ELLIOTT TRUDEAU INTL A","7025250","2011-12-12 20:00","2011","12","12","20:00","2.0","","-4.5","","62","","23","","6","","25.0","","102.51","","","","","","Clear"
"-73.75","45.47","MONTREAL/PIERRE ELLIOTT TRUDEAU INTL A","7025250","2011-12-12 21:00","2011","12","12","21:00","1.8","","-4.7","","62","","23","","6","","25.0","","102.52","","","","","","Clear"
"-73.75","45.47","MONTREAL/PIERRE ELLIOTT TRUDEAU INTL A","7025250","2011-12-12 22:00","2011","12","12","22:00","1.1","","-4.5","","66","","21","","9","","25.0","","102.50","","","","","","Clear"
"-73.75","45.47","MONTREAL/PIERRE ELLIOTT TRUDEAU INTL A","7025250","2011-12-12 23:00","2011","12","12","23:00","0.4","","-4.0","","72","","23","","7","","25.0","","102.49","","","","","","Clear"
"-73.75","45.47","MONTREAL/PIERRE ELLIOTT TRUDEAU INTL A","7025250","2011-12-13 00:00","2011","12","13","00:00","-0.5","","-4.9","","72","","23","","7","","25.0","","102.48","","","","-3","","Clear"
"-73.75","45.47","MONTREAL/PIERRE ELLIOTT TRUDEAU INTL A","7025250","2011-12-13 01:00","2011","12","13","01:00","-0.1","","-4.7","","71","","22","","4","","25.0","","102.46","","","","-1","","Mainly Clear"
"-73.75","45.47","MONTREAL/PIERRE ELLIOTT TRUDEAU INTL A","7025250","2011-12-13 02:00","2011","12","13","02:00","-0.5","","-4.3","","75","","21","","9","","25.0","","102.45","","","","-4","","Mainly Clear"
"-73.75","45.47","MONTREAL/PIERRE ELLIOTT TRUDEAU INTL A","7025250","2011-12-13 03:00","2011","12","13","03:00","-0.2","","-3.8","","77","","21","","6","","25.0","","102.46","","","","-2","","Mostly Cloudy"
"-73.75","45.47","MONTREAL/PIERRE ELLIOTT TRUDEAU INTL A","7025250","2011-12-13 04:00","2011","12","13","04:00","0.5","","-3.5","","75","","25","","7","","25.0","","102.45","","","","","","Cloudy"
"-73.75","45.47","MONTREAL/PIERRE ELLIOTT TRUDEAU INTL A","7025250","2011-12-13 05:00","2011","12","13","05:00","0.6","","-3.6","","73","","25","","9","","25.0","","102.41","","","","","","Cloudy"
"-73.75","45.47","MONTREAL/PIERRE ELLIOTT TRUDEAU INTL A","7025250","2011-12-13 06:00","2011","12","13","06:00","0.8","","-3.3","","74","","24","","9","","25.0","","102.42","","","","","","Cloudy"
"-73.75","45.47","MONTREAL/PIERRE ELLIOTT TRUDEAU INTL A","7025250","2011-12-13 07:00","2011","12","13","07:00","0.7","","-3.5","","73","","24","","13","","25.0","","102.43","","","","","","Cloudy"
"-73.75","45.47","MONTREAL/PIERRE ELLIOTT TRUDEAU INTL A","7025250","2011-12-13 08:00","2011","12","13","08:00","0.6","","-3.0","","77","","23","","9","","9.7","","102.44","","","","","","Snow"
"-73.75","45.47","MONTREAL/PIERRE ELLIOTT TRUDEAU INTL A","7025250","2011-12-13 09:00","2011","12","13","09:00","1.1","","-2.7","","76","","25","","11","","12.9","","102.48","","","","","","Snow"
"-73.75","45.47","MONTREAL/PIERRE ELLIOTT TRUDEAU INTL A","7025250","2011-12-13 10:00","2011","12","13","10:00","0.9","","-1.9","","82","","24","","11","","6.4","","102.49","","","","","","Snow"
"-73.75","45.47","MONTREAL/PIERRE ELLIOTT TRUDEAU INTL A","7025250","2011-12-13 11:00","2011","12","13","11:00","1.0","","-1.5","","83","","24","","11","","8.0","","102.46","","","","","","Snow"
"-73.75","45.47","MONTREAL/PIERRE ELLIOTT TRUDEAU INTL A","7025250","2011-12-13 12:00","2011","12","13","12:00","1.3","","-1.5","","82","","25","","7","","9.7","","102.38","","","","","","Snow"
"-73.75","45.47","MONTREAL/PIERRE ELLIOTT TRUDEAU INTL A","7025250","2011-12-13 13:00","2011","12","13","13:00","1.3","","-1.7","","80","","25","","11","","9.7","","102.33","","","","","","Snow"
"-73.75","45.47","MONTREAL/PIERRE ELLIOTT TRUDEAU INTL A","7025250","2011-12-13 14:00","2011","12","13","14:00","1.2","","-1.6","","82","","25","","9","","12.9","","102.33","","","","","","Snow"
"-73.75","45.47","MONTREAL/PIERRE ELLIOTT TRUDEAU INTL A","7025250","2011-12-13 15:00","2011","12","13","15:00","1.4","","-1.6","","80","","25","","6","","16.1","","102.32","","","","","","Cloudy"
"-73.75","45.47","MONTREAL/PIERRE ELLIOTT TRUDEAU INTL A","7025250","2011-12-13 16:00","2011","12","13","16:00","1.2","","-1.6","","82","","28","","7","","12.9","","102.37","","","","","","Drizzle"
"-73.75","45.47","MONTREAL/PIERRE ELLIOTT TRUDEAU INTL A","7025250","2011-12-13 17:00","2011","12","13","17:00","1.1","","-1.5","","83","","29","","6","","9.7","","102.42","","","","","","Drizzle"
"-73.75","45.47","MONTREAL/PIERRE ELLIOTT TRUDEAU INTL A","7025250","2011-12-13 18:00","2011","12","13","18:00","1.1","","-1.3","","84","","","","0","","9.7","","102.43","","","","","","Haze"
"-73.75","45.47","MONTREAL/PIERRE ELLIOTT TRUDEAU INTL A","7025250","2011-12-13 19:00","2011","12","13","19:00","1.1","","-1.3","","84","","31","","6","","9.7","","102.45","","","","","","Haze"
"-73.75","45.47","MONTREAL/PIERRE ELLIOTT TRUDEAU INTL A","7025250","2011-12-13 20:00","2011","12","13","20:00","1.0","","-1.3","","85","","35","","6","","6.4","","102.44","","","","","","Drizzle,Haze"
"-73.75","45.47","MONTREAL/PIERRE ELLIOTT TRUDEAU INTL A","7025250","2011-12-13 21:00","2011","12","13","21:00","1.0","","-1.1","","86","","35","","7","","8.0","","102.45","","","","","","Drizzle,Snow,Haze"
"-73.75","45.47","MONTREAL/PIERRE ELLIOTT TRUDEAU INTL A","7025250","2011-12-13 22:00","2011","12","13","22:00","0.9","","-1.0","","87","","1","","6","","6.4","","102.43","","","","","","Snow,Fog"
"-73.75","45.47","MONTREAL/PIERRE ELLIOTT TRUDEAU INTL A","7025250","2011-12-13 23:00","2011","12","13","23:00","0.8","","-1.2","","86","","2","","6","","6.4","","102.43","","","","","","Fog"
"-73.75","45.47","MONTREAL/PIERRE ELLIOTT TRUDEAU INTL A","7025250","2011-12-14 00:00","2011","12","14","00:00","0.8","","-1.1","","87","","4","","6","","4.8","","102.43","","","","","","Fog"
"-73.75","45.47","MONTREAL/PIERRE ELLIOTT TRUDEAU INTL A","7025250","2011-12-14 01:00","2011","12","14","01:00","1.3","","-0.8","","86","","4","","7","","4.8","","102.45","","","","","","Fog"
"-73.75","45.47","MONTREAL/PIERRE ELLIOTT TRUDEAU INTL A","7025250","2011-12-14 02:00","2011","12","14","02:00","1.5","","-0.9","","84","","3","","6","","4.8","","102.47","","","","","","Fog"
"-73.75","45.47","MONTREAL/PIERRE ELLIOTT TRUDEAU INTL A","7025250","2011-12-14 03:00","2011","12","14","03:00","1.3","","-1.2","","83","","4","","6","","6.4","","102.46","","","","","","Fog"
"-73.75","45.47","MONTREAL/PIERRE ELLIOTT TRUDEAU INTL A","7025250","2011-12-14 04:00","2011","12","14","04:00","1.4","","-1.1","","83","","35","","4","","6.4","","102.45","","","","","","Fog"
"-73.75","45.47","MONTREAL/PIERRE ELLIOTT TRUDEAU INTL A","7025250","2011-12-14 05:00","2011","12","14","05:00","1.4","","-1.2","","83","","5","","7","","8.0","","102.47","","","","","","Fog"
"-73.75","45.47","MONTREAL/PIERRE ELLIOTT TRUDEAU INTL A","7025250","2011-12-14 06:00","2011","12","14","06:00","1.2","","-1.6","","82","","7","","13","","8.0","","102.50","","","","","","Fog"
"-73.75","45.47","MONTREAL/PIERRE ELLIOTT TRUDEAU INTL A","7025250","2011-12-14 07:00","2011","12","14","07:00","1.0","","-1.8","","82","","5","","13","","8.0","","102.52","","","","","","Fog"
"-73.75","45.47","MONTREAL/PIERRE ELLIOTT TRUDEAU INTL A","7025250","2011-12-14 08:00","2011","12","14","08:00","0.8","","-1.8","","83","","6","","9","","8.0","","102.59","","","","","","Haze"
"-73.75","45.47","MONTREAL/PIERRE ELLIOTT TRUDEAU INTL A","7025250","2011-12-14 09:00","2011","12","14","09:00","1.1","","-1.6","","82","","8","","9","","8.0","","102.57","","","","","","Haze"
"-73.75","45.47","MONTREAL/PIERRE ELLIOTT TRUDEAU INTL A","7025250","2011-12-14 10:00","2011","12","14","10:00","1.5","","-1.4","","81","","5","","7","","8.0","","102.58","","","","","","Haze"
"-73.75","45.47","MONTREAL/PIERRE ELLIOTT TRUDEAU INTL A","7025250","2011-12-14 11:00","2011","12","14","11:00","1.6","","-1.3","","81","","4","","4","","8.0","","102.51","","","","","","Haze"
"-73.75","45.47","MONTREAL/PIERRE ELLIOTT TRUDEAU INTL A","7025250","2011-12-14 12:00","2011","12","14","12:00","1.9","","-1.4","","79","","","","0","","8.0","","102.48","","","","","","Haze"
"-73.75","45.47","MONTREAL/PIERRE ELLIOTT TRUDEAU INTL A","7025250","2011-12-14 13:00","2011","12","14","13:00","1.7","","-1.5","","79","","13","","6","","9.7","","102.39","","","","","","Haze"
"-73.75","45.47","MONTREAL/PIERRE ELLIOTT TRUDEAU INTL A","7025250","2011-12-14 14:00","2011","12","14","14:00","1.7","","-1.3","","80","","14","","4","","6.4","","102.35","","","","","","Haze"
"-73.75","45.47","MONTREAL/PIERRE ELLIOTT TRUDEAU INTL A","7025250","2011-12-14 15:00","2011","12","14","15:00","1.7","","-1.3","","80","","11","","7","","4.8","","102.28","","","","","","Haze"
"-73.75","45.47","MONTREAL/PIERRE ELLIOTT TRUDEAU INTL A","7025250","2011-12-14 16:00","2011","12","14","16:00","1.5","","-1.3","","82","","12","","9","","4.8","","102.29","","","","","","Haze"
"-73.75","45.47","MONTREAL/PIERRE ELLIOTT TRUDEAU INTL A","7025250","2011-12-14 17:00","2011","12","14","17:00","1.5","","-1.3","","82","","11","","7","","8.0","","102.26","","","","","","Haze"
"-73.75","45.47","MONTREAL/PIERRE ELLIOTT TRUDEAU INTL A","7025250","2011-12-14 18:00","2011","12","14","18:00","1.1","","-1.3","","84","","11","","15","","9.7","","102.14","","","","","","Haze"
"-73.75","45.47","MONTREAL/PIERRE ELLIOTT TRUDEAU INTL A","7025250","2011-12-14 19:00","2011","12","14","19:00","1.6","","-1.0","","83","","7","","7","","9.7","","102.06","","","","","","Haze"
"-73.75","45.47","MONTREAL/PIERRE ELLIOTT TRUDEAU INTL A","7025250","2011-12-14 20:00","2011","12","14","20:00","1.7","","-1.0","","82","","9","","9","","6.4","","101.98","","","","","","Haze"
"-73.75","45.47","MONTREAL/PIERRE ELLIOTT TRUDEAU INTL A","7025250","2011-12-14 21:00","2011","12","14","21:00","1.7","","-1.0","","82","","9","","17","","8.0","","101.85","","","","","","Haze"
"-73.75","45.47","MONTREAL/PIERRE ELLIOTT TRUDEAU INTL A","7025250","2011-12-14 22:00","2011","12","14","22:00","1.8","","-0.9","","82","","9","","11","","8.0","","101.68","","","","","","Haze"
"-73.75","45.47","MONTREAL/PIERRE ELLIOTT TRUDEAU INTL A","7025250","2011-12-14 23:00","2011","12","14","23:00","2.2","","-0.5","","82","","13","","17","","9.7","","101.56","","","","","","Haze"
"-73.75","45.47","MONTREAL/PIERRE ELLIOTT TRUDEAU INTL A","7025250","2011-12-15 00:00","2011","12","15","00:00","2.5","","0.0","","84","","14","","9","","11.3","","101.45","","","","","","Rain"
"-73.75","45.47","MONTREAL/PIERRE ELLIOTT TRUDEAU INTL A","7025250","2011-12-15 01:00","2011","12","15","01:00","3.2","","1.2","","87","","14","","20","","4.8","","101.20","","","","","","Rain,Fog"
"-73.75","45.47","MONTREAL/PIERRE ELLIOTT TRUDEAU INTL A","7025250","2011-12-15 02:00","2011","12","15","02:00","3.5","","1.8","","89","","15","","22","","6.4","","101.08","","","","","","Rain,Fog"
"-73.75","45.47","MONTREAL/PIERRE ELLIOTT TRUDEAU INTL A","7025250","2011-12-15 03:00","2011","12","15","03:00","3.7","","1.9","","88","","15","","28","","6.4","","100.87","","","","","","Rain,Fog"
"-73.75","45.47","MONTREAL/PIERRE ELLIOTT TRUDEAU INTL A","7025250","2011-12-15 04:00","2011","12","15","04:00","3.8","","2.2","","89","","16","","28","","4.8","","100.69","","","","","","Rain,Fog"
"-73.75","45.47","MONTREAL/PIERRE ELLIOTT TRUDEAU INTL A","7025250","2011-12-15 05:00","2011","12","15","05:00","4.2","","2.4","","88","","16","","30","","4.8","","100.55","","","","","","Moderate Rain,Fog"
"-73.75","45.47","MONTREAL/PIERRE ELLIOTT TRUDEAU INTL A","7025250","2011-12-15 06:00","2011","12","15","06:00","4.4","","2.7","","89","","16","","32","","4.8","","100.44","","","","","","Rain,Fog"
"-73.75","45.47","MONTREAL/PIERRE ELLIOTT TRUDEAU INTL A","7025250","2011-12-15 07:00","2011","12","15","07:00","4.7","","2.9","","88","","16","","28","","6.4","","100.28","","","","","","Rain,Fog"
"-73.75","45.47","MONTREAL/PIERRE ELLIOTT TRUDEAU INTL A","7025250","2011-12-15 08:00","2011","12","15","08:00","5.0","","3.0","","87","","16","","33","","3.2","","100.20","","","","","","Rain,Fog"
"-73.75","45.47","MONTREAL/PIERRE ELLIOTT TRUDEAU INTL A","7025250","2011-12-15 09:00","2011","12","15","09:00","5.2","","3.4","","88","","15","","26","","4.0","","100.08","","","","","","Moderate Rain,Fog"
"-73.75","45.47","MONTREAL/PIERRE ELLIOTT TRUDEAU INTL A","7025250","2011-12-15 10:00","2011","12","15","10:00","5.4","","3.7","","89","","16","","32","","4.0","","99.97","","","","","","Rain,Fog"
"-73.75","45.47","MONTREAL/PIERRE ELLIOTT TRUDEAU INTL A","7025250","2011-12-15 11:00","2011","12","15","11:00","5.8","","4.0","","88","","16","","28","","3.2","","99.85","","","","","","Moderate Rain,Fog"
"-73.75","45.47","MONTREAL/PIERRE ELLIOTT TRUDEAU INTL A","7025250","2011-12-15 12:00","2011","12","15","12:00","5.9","","4.4","","90","","16","","28","","2.8","","99.71","","","","","","Moderate Rain,Fog"
"-73.75","45.47","MONTREAL/PIERRE ELLIOTT TRUDEAU INTL A","7025250","2011-12-15 13:00","2011","12","15","13:00","6.2","","4.8","","91","","16","","28","","2.4","","99.60","","","","","","Moderate Rain,Fog"
"-73.75","45.47","MONTREAL/PIERRE ELLIOTT TRUDEAU INTL A","7025250","2011-12-15 14:00","2011","12","15","14:00","6.4","","5.2","","92","","16","","20","","2.8","","99.56","","","","","","Moderate Rain,Fog"
"-73.75","45.47","MONTREAL/PIERRE ELLIOTT TRUDEAU INTL A","7025250","2011-12-15 15:00","2011","12","15","15:00","6.9","","5.6","","91","","16","","19","","4.0","","99.47","","","","","","Rain,Fog"
"-73.75","45.47","MONTREAL/PIERRE ELLIOTT TRUDEAU INTL A","7025250","2011-12-15 16:00","2011","12","15","16:00","7.2","","5.6","","90","","16","","22","","9.7","","99.45","","","","","","Fog"
"-73.75","45.47","MONTREAL/PIERRE ELLIOTT TRUDEAU INTL A","7025250","2011-12-15 17:00","2011","12","15","17:00","7.2","","5.8","","91","","16","","19","","12.9","","99.38","","","","","","Rain"
"-73.75","45.47","MONTREAL/PIERRE ELLIOTT TRUDEAU INTL A","7025250","2011-12-15 18:00","2011","12","15","18:00","7.6","","6.3","","91","","16","","20","","12.9","","99.30","","","","","","Rain"
"-73.75","45.47","MONTREAL/PIERRE ELLIOTT TRUDEAU INTL A","7025250","2011-12-15 19:00","2011","12","15","19:00","8.2","","6.9","","92","","19","","20","","16.1","","99.30","","","","","","Rain"
"-73.75","45.47","MONTREAL/PIERRE ELLIOTT TRUDEAU INTL A","7025250","2011-12-15 20:00","2011","12","15","20:00","9.8","","8.1","","89","","22","","26","","25.0","","99.30","","","","","","Mostly Cloudy"
"-73.75","45.47","MONTREAL/PIERRE ELLIOTT TRUDEAU INTL A","7025250","2011-12-15 21:00","2011","12","15","21:00","10.3","","8.1","","86","","23","","33","","25.0","","99.34","","","","","","Mostly Cloudy"
"-73.75","45.47","MONTREAL/PIERRE ELLIOTT TRUDEAU INTL A","7025250","2011-12-15 22:00","2011","12","15","22:00","9.7","","7.6","","87","","23","","30","","25.0","","99.30","","","","","","Mainly Clear"
"-73.75","45.47","MONTREAL/PIERRE ELLIOTT TRUDEAU INTL A","7025250","2011-12-15 23:00","2011","12","15","23:00","10.1","","6.6","","79","","24","","30","","25.0","","99.35","","","","","","Mostly Cloudy"
"-73.75","45.47","MONTREAL/PIERRE ELLIOTT TRUDEAU INTL A","7025250","2011-12-16 00:00","2011","12","16","00:00","9.5","","6.5","","82","","25","","30","","25.0","","99.33","","","","","","Mostly Cloudy"
"-73.75","45.47","MONTREAL/PIERRE ELLIOTT TRUDEAU INTL A","7025250","2011-12-16 01:00","2011","12","16","01:00","9.0","","5.4","","78","","25","","35","","25.0","","99.35","","","","","","Rain"
"-73.75","45.47","MONTREAL/PIERRE ELLIOTT TRUDEAU INTL A","7025250","2011-12-16 02:00","2011","12","16","02:00","8.2","","3.7","","73","","25","","33","","25.0","","99.42","","","","","","Mostly Cloudy"
"-73.75","45.47","MONTREAL/PIERRE ELLIOTT TRUDEAU INTL A","7025250","2011-12-16 03:00","2011","12","16","03:00","7.1","","4.1","","81","","26","","33","","25.0","","99.50","","","","","","Cloudy"
"-73.75","45.47","MONTREAL/PIERRE ELLIOTT TRUDEAU INTL A","7025250","2011-12-16 04:00","2011","12","16","04:00","6.4","","2.1","","74","","27","","33","","25.0","","99.62","","","","","","Cloudy"
"-73.75","45.47","MONTREAL/PIERRE ELLIOTT TRUDEAU INTL A","7025250","2011-12-16 05:00","2011","12","16","05:00","6.2","","1.8","","73","","27","","41","","25.0","","99.77","","","","","","Cloudy"
"-73.75","45.47","MONTREAL/PIERRE ELLIOTT TRUDEAU INTL A","7025250","2011-12-16 06:00","2011","12","16","06:00","5.7","","2.0","","77","","27","","41","","25.0","","99.98","","","","","","Rain Showers"
"-73.75","45.47","MONTREAL/PIERRE ELLIOTT TRUDEAU INTL A","7025250","2011-12-16 07:00","2011","12","16","07:00","3.8","","-0.6","","73","","29","","26","","24.1","","100.26","","","","","","Mainly Clear"
"-73.75","45.47","MONTREAL/PIERRE ELLIOTT TRUDEAU INTL A","7025250","2011-12-16 08:00","2011","12","16","08:00","3.7","","-1.0","","71","","27","","24","","24.1","","100.43","","","","","","Mainly Clear"
"-73.75","45.47","MONTREAL/PIERRE ELLIOTT TRUDEAU INTL A","7025250","2011-12-16 09:00","2011","12","16","09:00","3.5","","-1.5","","70","","27","","17","","24.1","","100.73","","","","","","Mainly Clear"
"-73.75","45.47","MONTREAL/PIERRE ELLIOTT TRUDEAU INTL A","7025250","2011-12-16 10:00","2011","12","16","10:00","3.6","","-2.5","","64","","29","","30","","24.1","","100.92","","","","","","Mainly Clear"
"-73.75","45.47","MONTREAL/PIERRE ELLIOTT TRUDEAU INTL A","7025250","2011-12-16 11:00","2011","12","16","11:00","3.4","","-2.9","","63","","30","","32","","48.3","","101.06","","","","","","Mainly Clear"
"-73.75","45.47","MONTREAL/PIERRE ELLIOTT TRUDEAU INTL A","7025250","2011-12-16 12:00","2011","12","16","12:00","3.5","","-3.3","","61","","31","","28","","48.3","","101.07","","","","","","Mainly Clear"
"-73.75","45.47","MONTREAL/PIERRE ELLIOTT TRUDEAU INTL A","7025250","2011-12-16 13:00","2011","12","16","13:00","2.9","","-3.4","","63","","30","","24","","48.3","","101.14","","","","","","Mainly Clear"
"-73.75","45.47","MONTREAL/PIERRE ELLIOTT TRUDEAU INTL A","7025250","2011-12-16 14:00","2011","12","16","14:00","1.3","","-5.6","","60","","30","","24","","48.3","","101.27","","","","","","Mainly Clear"
"-73.75","45.47","MONTREAL/PIERRE ELLIOTT TRUDEAU INTL A","7025250","2011-12-16 15:00","2011","12","16","15:00","1.4","","-5.5","","60","","30","","24","","48.3","","101.30","","","","","","Mostly Cloudy"
"-73.75","45.47","MONTREAL/PIERRE ELLIOTT TRUDEAU INTL A","7025250","2011-12-16 16:00","2011","12","16","16:00","-0.3","","-6.7","","62","","30","","19","","48.3","","101.38","","","","-5","","Mainly Clear"
"-73.75","45.47","MONTREAL/PIERRE ELLIOTT TRUDEAU INTL A","7025250","2011-12-16 17:00","2011","12","16","17:00","-1.2","","-7.4","","63","","31","","9","","25.0","","101.47","","","","-4","","Mainly Clear"
"-73.75","45.47","MONTREAL/PIERRE ELLIOTT TRUDEAU INTL A","7025250","2011-12-16 18:00","2011","12","16","18:00","-1.4","","-7.6","","63","","34","","9","","25.0","","101.49","","","","-5","","Mostly Cloudy"
"-73.75","45.47","MONTREAL/PIERRE ELLIOTT TRUDEAU INTL A","7025250","2011-12-16 19:00","2011","12","16","19:00","-2.4","","-7.8","","66","","30","","11","","25.0","","101.50","","","","-6","","Mainly Clear"
"-73.75","45.47","MONTREAL/PIERRE ELLIOTT TRUDEAU INTL A","7025250","2011-12-16 20:00","2011","12","16","20:00","-1.8","","-7.9","","63","","33","","11","","25.0","","101.48","","","","-6","","Mostly Cloudy"
"-73.75","45.47","MONTREAL/PIERRE ELLIOTT TRUDEAU INTL A","7025250","2011-12-16 21:00","2011","12","16","21:00","-2.5","","-8.9","","61","","31","","7","","25.0","","101.45","","","","-5","","Mostly Cloudy"
"-73.75","45.47","MONTREAL/PIERRE ELLIOTT TRUDEAU INTL A","7025250","2011-12-16 22:00","2011","12","16","22:00","-2.9","","-8.7","","64","","32","","7","","25.0","","101.44","","","","-6","","Mostly Cloudy"
"-73.75","45.47","MONTREAL/PIERRE ELLIOTT TRUDEAU INTL A","7025250","2011-12-16 23:00","2011","12","16","23:00","-2.9","","-8.9","","63","","32","","13","","25.0","","101.44","","","","-8","","Cloudy"
"-73.75","45.47","MONTREAL/PIERRE ELLIOTT TRUDEAU INTL A","7025250","2011-12-17 00:00","2011","12","17","00:00","-3.4","","-9.9","","61","","31","","9","","25.0","","101.44","","","","-7","","Cloudy"
"-73.75","45.47","MONTREAL/PIERRE ELLIOTT TRUDEAU INTL A","7025250","2011-12-17 01:00","2011","12","17","01:00","-3.6","","-9.6","","63","","29","","15","","19.3","","101.47","","","","-9","","Snow Showers"
"-73.75","45.47","MONTREAL/PIERRE ELLIOTT TRUDEAU INTL A","7025250","2011-12-17 02:00","2011","12","17","02:00","-4.1","","-10.6","","61","","28","","9","","19.3","","101.51","","","","-8","","Snow Showers"
"-73.75","45.47","MONTREAL/PIERRE ELLIOTT TRUDEAU INTL A","7025250","2011-12-17 03:00","2011","12","17","03:00","-4.4","","-10.3","","63","","28","","15","","25.0","","101.56","","","","-10","","Cloudy"
"-73.75","45.47","MONTREAL/PIERRE ELLIOTT TRUDEAU INTL A","7025250","2011-12-17 04:00","2011","12","17","04:00","-5.0","","-11.4","","61","","30","","15","","25.0","","101.62","","","","-11","","Mostly Cloudy"
"-73.75","45.47","MONTREAL/PIERRE ELLIOTT TRUDEAU INTL A","7025250","2011-12-17 05:00","2011","12","17","05:00","-6.1","","-12.3","","61","","30","","19","","25.0","","101.68","","","","-13","","Mostly Cloudy"
"-73.75","45.47","MONTREAL/PIERRE ELLIOTT TRUDEAU INTL A","7025250","2011-12-17 06:00","2011","12","17","06:00","-7.0","","-13.8","","58","","33","","20","","25.0","","101.76","","","","-14","","Mostly Cloudy"
"-73.75","45.47","MONTREAL/PIERRE ELLIOTT TRUDEAU INTL A","7025250","2011-12-17 07:00","2011","12","17","07:00","-8.0","","-14.2","","61","","34","","17","","25.0","","101.85","","","","-15","","Mainly Clear"
"-73.75","45.47","MONTREAL/PIERRE ELLIOTT TRUDEAU INTL A","7025250","2011-12-17 08:00","2011","12","17","08:00","-8.3","","-15.1","","58","","33","","13","","24.1","","101.93","","","","-14","","Mainly Clear"
"-73.75","45.47","MONTREAL/PIERRE ELLIOTT TRUDEAU INTL A","7025250","2011-12-17 09:00","2011","12","17","09:00","-8.3","","-15.4","","57","","36","","15","","48.3","","101.98","","","","-15","","Mainly Clear"
"-73.75","45.47","MONTREAL/PIERRE ELLIOTT TRUDEAU INTL A","7025250","2011-12-17 10:00","2011","12","17","10:00","-8.0","","-16.1","","52","","35","","13","","48.3","","102.05","","","","-14","","Mainly Clear"
"-73.75","45.47","MONTREAL/PIERRE ELLIOTT TRUDEAU INTL A","7025250","2011-12-17 11:00","2011","12","17","11:00","-7.9","","-16.7","","49","","36","","9","","48.3","","102.06","","","","-12","","Mainly Clear"
"-73.75","45.47","MONTREAL/PIERRE ELLIOTT TRUDEAU INTL A","7025250","2011-12-17 12:00","2011","12","17","12:00","-7.6","","-17.3","","46","","5","","11","","48.3","","102.00","","","","-13","","Mainly Clear"
"-73.75","45.47","MONTREAL/PIERRE ELLIOTT TRUDEAU INTL A","7025250","2011-12-17 13:00","2011","12","17","13:00","-7.0","","-17.2","","44","","5","","9","","48.3","","101.97","","","","-11","","Mainly Clear"
"-73.75","45.47","MONTREAL/PIERRE ELLIOTT TRUDEAU INTL A","7025250","2011-12-17 14:00","2011","12","17","14:00","-6.8","","-17.4","","43","","28","","7","","48.3","","101.96","","","","-10","","Mostly Cloudy"
"-73.75","45.47","MONTREAL/PIERRE ELLIOTT TRUDEAU INTL A","7025250","2011-12-17 15:00","2011","12","17","15:00","-6.7","","-17.9","","41","","35","","9","","48.3","","101.98","","","","-11","","Mainly Clear"
"-73.75","45.47","MONTREAL/PIERRE ELLIOTT TRUDEAU INTL A","7025250","2011-12-17 16:00","2011","12","17","16:00","-7.3","","-16.9","","46","","26","","4","","48.3","","102.00","","","","-9","","Mainly Clear"
"-73.75","45.47","MONTREAL/PIERRE ELLIOTT TRUDEAU INTL A","7025250","2011-12-17 17:00","2011","12","17","17:00","-7.9","","-16.5","","50","","26","","6","","25.0","","102.05","","","","-11","","Mainly Clear"
"-73.75","45.47","MONTREAL/PIERRE ELLIOTT TRUDEAU INTL A","7025250","2011-12-17 18:00","2011","12","17","18:00","-7.7","","-15.7","","53","","25","","4","","25.0","","102.09","","","","-10","","Clear"
"-73.75","45.47","MONTREAL/PIERRE ELLIOTT TRUDEAU INTL A","7025250","2011-12-17 19:00","2011","12","17","19:00","-8.0","","-15.6","","54","","33","","4","","25.0","","102.10","","","","-10","","Mainly Clear"
"-73.75","45.47","MONTREAL/PIERRE ELLIOTT TRUDEAU INTL A","7025250","2011-12-17 20:00","2011","12","17","20:00","-8.2","","-17.1","","49","","3","","15","","25.0","","102.12","","","","-15","","Mainly Clear"
"-73.75","45.47","MONTREAL/PIERRE ELLIOTT TRUDEAU INTL A","7025250","2011-12-17 21:00","2011","12","17","21:00","-8.8","","-16.9","","52","","1","","9","","25.0","","102.15","","","","-13","","Mostly Cloudy"
"-73.75","45.47","MONTREAL/PIERRE ELLIOTT TRUDEAU INTL A","7025250","2011-12-17 22:00","2011","12","17","22:00","-9.3","","-17.0","","54","","3","","13","","25.0","","102.13","","","","-15","","Mostly Cloudy"
"-73.75","45.47","MONTREAL/PIERRE ELLIOTT TRUDEAU INTL A","7025250","2011-12-17 23:00","2011","12","17","23:00","-9.2","","-17.6","","50","","3","","13","","25.0","","102.11","","","","-15","","Mainly Clear"
"-73.75","45.47","MONTREAL/PIERRE ELLIOTT TRUDEAU INTL A","7025250","2011-12-18 00:00","2011","12","18","00:00","-9.7","","-17.0","","55","","3","","11","","25.0","","102.10","","","","-15","","Cloudy"
"-73.75","45.47","MONTREAL/PIERRE ELLIOTT TRUDEAU INTL A","7025250","2011-12-18 01:00","2011","12","18","01:00","-10.2","","-16.4","","60","","3","","9","","25.0","","102.10","","","","-15","","Cloudy"
"-73.75","45.47","MONTREAL/PIERRE ELLIOTT TRUDEAU INTL A","7025250","2011-12-18 02:00","2011","12","18","02:00","-9.9","","-16.4","","59","","3","","9","","25.0","","102.15","","","","-15","","Cloudy"
"-73.75","45.47","MONTREAL/PIERRE ELLIOTT TRUDEAU INTL A","7025250","2011-12-18 03:00","2011","12","18","03:00","-9.9","","-17.2","","55","","10","","7","","25.0","","102.13","","","","-14","","Cloudy"
"-73.75","45.47","MONTREAL/PIERRE ELLIOTT TRUDEAU INTL A","7025250","2011-12-18 04:00","2011","12","18","04:00","-10.8","","-16.7","","62","","36","","7","","25.0","","102.13","","","","-15","","Mainly Clear"
"-73.75","45.47","MONTREAL/PIERRE ELLIOTT TRUDEAU INTL A","7025250","2011-12-18 05:00","2011","12","18","05:00","-11.3","","-15.8","","69","","4","","9","","25.0","","102.13","","","","-16","","Mainly Clear"
"-73.75","45.47","MONTREAL/PIERRE ELLIOTT TRUDEAU INTL A","7025250","2011-12-18 06:00","2011","12","18","06:00","-11.6","","-15.7","","72","","3","","7","","25.0","","102.20","","","","-16","","Clear"
"-73.75","45.47","MONTREAL/PIERRE ELLIOTT TRUDEAU INTL A","7025250","2011-12-18 07:00","2011","12","18","07:00","-11.7","","-16.0","","70","","2","","7","","48.3","","102.23","","","","-16","","Clear"
"-73.75","45.47","MONTREAL/PIERRE ELLIOTT TRUDEAU INTL A","7025250","2011-12-18 08:00","2011","12","18","08:00","-10.5","","-17.3","","57","","8","","7","","48.3","","102.22","","","","-15","","Mainly Clear"
"-73.75","45.47","MONTREAL/PIERRE ELLIOTT TRUDEAU INTL A","7025250","2011-12-18 09:00","2011","12","18","09:00","-9.7","","-16.9","","56","","10","","9","","48.3","","102.27","","","","-15","","Mainly Clear"
"-73.75","45.47","MONTREAL/PIERRE ELLIOTT TRUDEAU INTL A","7025250","2011-12-18 10:00","2011","12","18","10:00","-9.1","","-16.8","","54","","16","","7","","48.3","","102.28","","","","-13","","Mainly Clear"
"-73.75","45.47","MONTREAL/PIERRE ELLIOTT TRUDEAU INTL A","7025250","2011-12-18 11:00","2011","12","18","11:00","-8.7","","-16.7","","52","","17","","7","","48.3","","102.22","","","","-13","","Mainly Clear"
"-73.75","45.47","MONTREAL/PIERRE ELLIOTT TRUDEAU INTL A","7025250","2011-12-18 12:00","2011","12","18","12:00","-6.9","","-16.0","","48","","12","","6","","48.3","","102.16","","","","-10","","Mainly Clear"
"-73.75","45.47","MONTREAL/PIERRE ELLIOTT TRUDEAU INTL A","7025250","2011-12-18 13:00","2011","12","18","13:00","-7.1","","-15.8","","50","","12","","7","","48.3","","102.08","","","","-11","","Mainly Clear"
"-73.75","45.47","MONTREAL/PIERRE ELLIOTT TRUDEAU INTL A","7025250","2011-12-18 14:00","2011","12","18","14:00","-6.5","","-15.8","","48","","14","","6","","48.3","","102.10","","","","-9","","Clear"
"-73.75","45.47","MONTREAL/PIERRE ELLIOTT TRUDEAU INTL A","7025250","2011-12-18 15:00","2011","12","18","15:00","-6.2","","-15.9","","46","","21","","4","","48.3","","102.10","","","","-8","","Mainly Clear"
"-73.75","45.47","MONTREAL/PIERRE ELLIOTT TRUDEAU INTL A","7025250","2011-12-18 16:00","2011","12","18","16:00","-7.6","","-16.2","","50","","17","","9","","48.3","","102.05","","","","-12","","Clear"
"-73.75","45.47","MONTREAL/PIERRE ELLIOTT TRUDEAU INTL A","7025250","2011-12-18 17:00","2011","12","18","17:00","-8.2","","-15.6","","55","","17","","11","","25.0","","102.11","","","","-13","","Mainly Clear"
"-73.75","45.47","MONTREAL/PIERRE ELLIOTT TRUDEAU INTL A","7025250","2011-12-18 18:00","2011","12","18","18:00","-8.0","","-15.1","","57","","14","","13","","25.0","","102.07","","","","-14","","Clear"
"-73.75","45.47","MONTREAL/PIERRE ELLIOTT TRUDEAU INTL A","7025250","2011-12-18 19:00","2011","12","18","19:00","-8.2","","-15.3","","57","","12","","13","","25.0","","102.01","","","","-14","","Clear"
"-73.75","45.47","MONTREAL/PIERRE ELLIOTT TRUDEAU INTL A","7025250","2011-12-18 20:00","2011","12","18","20:00","-8.5","","-14.8","","60","","15","","15","","25.0","","101.97","","","","-15","","Mainly Clear"
"-73.75","45.47","MONTREAL/PIERRE ELLIOTT TRUDEAU INTL A","7025250","2011-12-18 21:00","2011","12","18","21:00","-8.1","","-14.1","","62","","14","","13","","25.0","","101.87","","","","-14","","Clear"
"-73.75","45.47","MONTREAL/PIERRE ELLIOTT TRUDEAU INTL A","7025250","2011-12-18 22:00","2011","12","18","22:00","-7.6","","-13.1","","65","","14","","17","","25.0","","101.74","","","","-14","","Mainly Clear"
"-73.75","45.47","MONTREAL/PIERRE ELLIOTT TRUDEAU INTL A","7025250","2011-12-18 23:00","2011","12","18","23:00","-7.5","","-13.0","","65","","15","","15","","25.0","","101.67","","","","-14","","Mainly Clear"
"-73.75","45.47","MONTREAL/PIERRE ELLIOTT TRUDEAU INTL A","7025250","2011-12-19 00:00","2011","12","19","00:00","-7.2","","-13.1","","63","","13","","9","","25.0","","101.56","","","","-12","","Mostly Cloudy"
"-73.75","45.47","MONTREAL/PIERRE ELLIOTT TRUDEAU INTL A","7025250","2011-12-19 01:00","2011","12","19","01:00","-6.1","","-12.2","","62","","14","","13","","25.0","","101.45","","","","-11","","Cloudy"
"-73.75","45.47","MONTREAL/PIERRE ELLIOTT TRUDEAU INTL A","7025250","2011-12-19 02:00","2011","12","19","02:00","-5.1","","-12.0","","58","","14","","13","","25.0","","101.38","","","","-10","","Cloudy"
"-73.75","45.47","MONTREAL/PIERRE ELLIOTT TRUDEAU INTL A","7025250","2011-12-19 03:00","2011","12","19","03:00","-4.4","","-11.8","","56","","15","","17","","25.0","","101.26","","","","-10","","Cloudy"
"-73.75","45.47","MONTREAL/PIERRE ELLIOTT TRUDEAU INTL A","7025250","2011-12-19 04:00","2011","12","19","04:00","-3.8","","-11.0","","57","","16","","24","","25.0","","101.13","","","","-11","","Cloudy"
"-73.75","45.47","MONTREAL/PIERRE ELLIOTT TRUDEAU INTL A","7025250","2011-12-19 05:00","2011","12","19","05:00","-3.3","","-10.2","","59","","17","","24","","25.0","","101.00","","","","-10","","Cloudy"
"-73.75","45.47","MONTREAL/PIERRE ELLIOTT TRUDEAU INTL A","7025250","2011-12-19 06:00","2011","12","19","06:00","-3.2","","-9.9","","60","","16","","32","","25.0","","100.85","","","","-11","","Cloudy"
"-73.75","45.47","MONTREAL/PIERRE ELLIOTT TRUDEAU INTL A","7025250","2011-12-19 07:00","2011","12","19","07:00","-3.6","","-9.7","","63","","16","","28","","8.0","","100.76","","","","-11","","Snow"
"-73.75","45.47","MONTREAL/PIERRE ELLIOTT TRUDEAU INTL A","7025250","2011-12-19 08:00","2011","12","19","08:00","-3.7","","-9.0","","67","","15","","28","","24.1","","100.48","","","","-11","","Cloudy"
"-73.75","45.47","MONTREAL/PIERRE ELLIOTT TRUDEAU INTL A","7025250","2011-12-19 09:00","2011","12","19","09:00","-2.9","","-8.8","","64","","15","","30","","48.3","","100.35","","","","-10","","Snow"
"-73.75","45.47","MONTREAL/PIERRE ELLIOTT TRUDEAU INTL A","7025250","2011-12-19 10:00","2011","12","19","10:00","-2.0","","-8.1","","63","","16","","22","","19.3","","100.36","","","","-8","","Snow"
"-73.75","45.47","MONTREAL/PIERRE ELLIOTT TRUDEAU INTL A","7025250","2011-12-19 11:00","2011","12","19","11:00","-1.6","","-7.0","","67","","16","","24","","24.1","","100.23","","","","-8","","Snow"
"-73.75","45.47","MONTREAL/PIERRE ELLIOTT TRUDEAU INTL A","7025250","2011-12-19 12:00","2011","12","19","12:00","-0.5","","-5.7","","68","","16","","13","","24.1","","100.16","","","","-5","","Cloudy"
"-73.75","45.47","MONTREAL/PIERRE ELLIOTT TRUDEAU INTL A","7025250","2011-12-19 13:00","2011","12","19","13:00","4.7","","-1.1","","66","","23","","41","","24.1","","100.06","","","","","","Cloudy"
"-73.75","45.47","MONTREAL/PIERRE ELLIOTT TRUDEAU INTL A","7025250","2011-12-19 14:00","2011","12","19","14:00","5.1","","-0.6","","67","","23","","33","","24.1","","100.00","","","","","","Rain Showers"
"-73.75","45.47","MONTREAL/PIERRE ELLIOTT TRUDEAU INTL A","7025250","2011-12-19 15:00","2011","12","19","15:00","5.3","","0.1","","69","","24","","35","","24.1","","100.03","","","","","","Rain Showers"
"-73.75","45.47","MONTREAL/PIERRE ELLIOTT TRUDEAU INTL A","7025250","2011-12-19 16:00","2011","12","19","16:00","5.5","","0.9","","72","","24","","30","","24.1","","100.08","","","","","","Rain Showers"
"-73.75","45.47","MONTREAL/PIERRE ELLIOTT TRUDEAU INTL A","7025250","2011-12-19 17:00","2011","12","19","17:00","5.1","","1.5","","78","","24","","24","","24.1","","100.15","","","","","","Rain Showers"
"-73.75","45.47","MONTREAL/PIERRE ELLIOTT TRUDEAU INTL A","7025250","2011-12-19 18:00","2011","12","19","18:00","4.7","","1.9","","82","","26","","24","","25.0","","100.20","","","","","","Rain"
"-73.75","45.47","MONTREAL/PIERRE ELLIOTT TRUDEAU INTL A","7025250","2011-12-19 19:00","2011","12","19","19:00","4.5","","2.0","","84","","27","","22","","25.0","","100.28","","","","","","Cloudy"
"-73.75","45.47","MONTREAL/PIERRE ELLIOTT TRUDEAU INTL A","7025250","2011-12-19 20:00","2011","12","19","20:00","2.9","","0.2","","82","","30","","13","","25.0","","100.41","","","","","","Mostly Cloudy"
"-73.75","45.47","MONTREAL/PIERRE ELLIOTT TRUDEAU INTL A","7025250","2011-12-19 21:00","2011","12","19","21:00","2.3","","-1.8","","74","","32","","19","","25.0","","100.49","","","","","","Mainly Clear"
"-73.75","45.47","MONTREAL/PIERRE ELLIOTT TRUDEAU INTL A","7025250","2011-12-19 22:00","2011","12","19","22:00","0.8","","-3.8","","71","","30","","15","","25.0","","100.61","","","","","","Mainly Clear"
"-73.75","45.47","MONTREAL/PIERRE ELLIOTT TRUDEAU INTL A","7025250","2011-12-19 23:00","2011","12","19","23:00","0.3","","-6.0","","63","","31","","20","","25.0","","100.74","","","","","","Mostly Cloudy"
"-73.75","45.47","MONTREAL/PIERRE ELLIOTT TRUDEAU INTL A","7025250","2011-12-20 00:00","2011","12","20","00:00","-0.3","","-6.5","","63","","31","","17","","25.0","","100.91","","","","-5","","Mostly Cloudy"
"-73.75","45.47","MONTREAL/PIERRE ELLIOTT TRUDEAU INTL A","7025250","2011-12-20 01:00","2011","12","20","01:00","-1.6","","-7.9","","62","","31","","17","","25.0","","101.08","","","","-7","","Mostly Cloudy"
"-73.75","45.47","MONTREAL/PIERRE ELLIOTT TRUDEAU INTL A","7025250","2011-12-20 02:00","2011","12","20","02:00","-3.3","","-9.9","","60","","29","","26","","25.0","","101.29","","","","-10","","Mostly Cloudy"
"-73.75","45.47","MONTREAL/PIERRE ELLIOTT TRUDEAU INTL A","7025250","2011-12-20 03:00","2011","12","20","03:00","-4.3","","-11.3","","58","","31","","22","","25.0","","101.41","","","","-11","","Mostly Cloudy"
"-73.75","45.47","MONTREAL/PIERRE ELLIOTT TRUDEAU INTL A","7025250","2011-12-20 04:00","2011","12","20","04:00","-5.4","","-12.1","","59","","32","","11","","25.0","","101.48","","","","-10","","Mainly Clear"
"-73.75","45.47","MONTREAL/PIERRE ELLIOTT TRUDEAU INTL A","7025250","2011-12-20 05:00","2011","12","20","05:00","-5.9","","-12.4","","60","","36","","11","","25.0","","101.56","","","","-11","","Mostly Cloudy"
"-73.75","45.47","MONTREAL/PIERRE ELLIOTT TRUDEAU INTL A","7025250","2011-12-20 06:00","2011","12","20","06:00","-5.8","","-12.5","","59","","33","","13","","25.0","","101.78","","","","-11","","Mostly Cloudy"
"-73.75","45.47","MONTREAL/PIERRE ELLIOTT TRUDEAU INTL A","7025250","2011-12-20 07:00","2011","12","20","07:00","-6.4","","-12.7","","61","","30","","15","","25.0","","101.88","","","","-12","","Mainly Clear"
"-73.75","45.47","MONTREAL/PIERRE ELLIOTT TRUDEAU INTL A","7025250","2011-12-20 08:00","2011","12","20","08:00","-8.1","","-15.0","","58","","32","","17","","24.1","","101.93","","","","-15","","Clear"
"-73.75","45.47","MONTREAL/PIERRE ELLIOTT TRUDEAU INTL A","7025250","2011-12-20 09:00","2011","12","20","09:00","-7.3","","-15.1","","54","","31","","9","","24.1","","102.06","","","","-12","","Clear"
"-73.75","45.47","MONTREAL/PIERRE ELLIOTT TRUDEAU INTL A","7025250","2011-12-20 10:00","2011","12","20","10:00","-6.7","","-14.6","","53","","31","","9","","24.1","","102.06","","","","-11","","Clear"
"-73.75","45.47","MONTREAL/PIERRE ELLIOTT TRUDEAU INTL A","7025250","2011-12-20 11:00","2011","12","20","11:00","-5.3","","-13.1","","54","","24","","13","","24.1","","102.02","","","","-10","","Mainly Clear"
"-73.75","45.47","MONTREAL/PIERRE ELLIOTT TRUDEAU INTL A","7025250","2011-12-20 12:00","2011","12","20","12:00","-5.0","","-13.1","","53","","28","","19","","24.1","","101.95","","","","-11","","Mainly Clear"
"-73.75","45.47","MONTREAL/PIERRE ELLIOTT TRUDEAU INTL A","7025250","2011-12-20 13:00","2011","12","20","13:00","-4.7","","-13.7","","49","","28","","20","","24.1","","101.86","","","","-11","","Mainly Clear"
"-73.75","45.47","MONTREAL/PIERRE ELLIOTT TRUDEAU INTL A","7025250","2011-12-20 14:00","2011","12","20","14:00","-4.6","","-13.4","","50","","25","","13","","48.3","","101.80","","","","-10","","Mainly Clear"
"-73.75","45.47","MONTREAL/PIERRE ELLIOTT TRUDEAU INTL A","7025250","2011-12-20 15:00","2011","12","20","15:00","-4.7","","-13.0","","52","","23","","17","","48.3","","101.80","","","","-11","","Mainly Clear"
"-73.75","45.47","MONTREAL/PIERRE ELLIOTT TRUDEAU INTL A","7025250","2011-12-20 16:00","2011","12","20","16:00","-5.4","","-12.6","","57","","23","","9","","48.3","","101.77","","","","-9","","Mainly Clear"
"-73.75","45.47","MONTREAL/PIERRE ELLIOTT TRUDEAU INTL A","7025250","2011-12-20 17:00","2011","12","20","17:00","-6.1","","-12.4","","61","","26","","11","","25.0","","101.74","","","","-11","","Mainly Clear"
"-73.75","45.47","MONTREAL/PIERRE ELLIOTT TRUDEAU INTL A","7025250","2011-12-20 18:00","2011","12","20","18:00","-8.0","","-12.7","","69","","29","","7","","25.0","","101.76","","","","-12","","Clear"
"-73.75","45.47","MONTREAL/PIERRE ELLIOTT TRUDEAU INTL A","7025250","2011-12-20 19:00","2011","12","20","19:00","-7.6","","-12.6","","67","","","","0","","25.0","","101.76","","","","","","Clear"
"-73.75","45.47","MONTREAL/PIERRE ELLIOTT TRUDEAU INTL A","7025250","2011-12-20 20:00","2011","12","20","20:00","-7.6","","-12.8","","66","","","","0","","25.0","","101.71","","","","","","Clear"
"-73.75","45.47","MONTREAL/PIERRE ELLIOTT TRUDEAU INTL A","7025250","2011-12-20 21:00","2011","12","20","21:00","-7.1","","-12.5","","65","","1","","4","","25.0","","101.67","","","","-9","","Clear"
"-73.75","45.47","MONTREAL/PIERRE ELLIOTT TRUDEAU INTL A","7025250","2011-12-20 22:00","2011","12","20","22:00","-7.1","","-12.1","","67","","16","","11","","25.0","","101.56","","","","-12","","Clear"
"-73.75","45.47","MONTREAL/PIERRE ELLIOTT TRUDEAU INTL A","7025250","2011-12-20 23:00","2011","12","20","23:00","-7.8","","-12.3","","70","","15","","6","","25.0","","101.44","","","","-11","","Clear"
"-73.75","45.47","MONTREAL/PIERRE ELLIOTT TRUDEAU INTL A","7025250","2011-12-21 00:00","2011","12","21","00:00","-6.8","","-11.2","","71","","","","0","","25.0","","101.44","","","","","","Clear"
"-73.75","45.47","MONTREAL/PIERRE ELLIOTT TRUDEAU INTL A","7025250","2011-12-21 01:00","2011","12","21","01:00","-6.6","","-11.1","","70","","8","","4","","25.0","","101.33","","","","-9","","Clear"
"-73.75","45.47","MONTREAL/PIERRE ELLIOTT TRUDEAU INTL A","7025250","2011-12-21 02:00","2011","12","21","02:00","-7.0","","-11.2","","72","","16","","4","","25.0","","101.24","","","","-9","","Clear"
"-73.75","45.47","MONTREAL/PIERRE ELLIOTT TRUDEAU INTL A","7025250","2011-12-21 03:00","2011","12","21","03:00","-6.6","","-10.1","","76","","3","","4","","25.0","","101.18","","","","-9","","Mostly Cloudy"
"-73.75","45.47","MONTREAL/PIERRE ELLIOTT TRUDEAU INTL A","7025250","2011-12-21 04:00","2011","12","21","04:00","-5.8","","-9.3","","76","","9","","4","","25.0","","101.09","","","","-8","","Cloudy"
"-73.75","45.47","MONTREAL/PIERRE ELLIOTT TRUDEAU INTL A","7025250","2011-12-21 05:00","2011","12","21","05:00","-6.3","","-9.6","","77","","8","","7","","25.0","","101.07","","","","-10","","Cloudy"
"-73.75","45.47","MONTREAL/PIERRE ELLIOTT TRUDEAU INTL A","7025250","2011-12-21 06:00","2011","12","21","06:00","-5.9","","-9.3","","77","","2","","9","","25.0","","101.05","","","","-10","","Cloudy"
"-73.75","45.47","MONTREAL/PIERRE ELLIOTT TRUDEAU INTL A","7025250","2011-12-21 07:00","2011","12","21","07:00","-5.6","","-9.6","","73","","4","","11","","25.0","","101.03","","","","-10","","Cloudy"
"-73.75","45.47","MONTREAL/PIERRE ELLIOTT TRUDEAU INTL A","7025250","2011-12-21 08:00","2011","12","21","08:00","-5.3","","-9.3","","73","","3","","7","","19.3","","100.98","","","","-9","","Cloudy"
"-73.75","45.47","MONTREAL/PIERRE ELLIOTT TRUDEAU INTL A","7025250","2011-12-21 09:00","2011","12","21","09:00","-4.5","","-8.4","","74","","3","","11","","12.9","","100.90","","","","-9","","Snow"
"-73.75","45.47","MONTREAL/PIERRE ELLIOTT TRUDEAU INTL A","7025250","2011-12-21 10:00","2011","12","21","10:00","-5.0","","-8.5","","76","","2","","13","","8.0","","100.88","","","","-10","","Snow"
"-73.75","45.47","MONTREAL/PIERRE ELLIOTT TRUDEAU INTL A","7025250","2011-12-21 11:00","2011","12","21","11:00","-4.6","","-7.9","","78","","3","","15","","9.7","","100.73","","","","-10","","Snow"
"-73.75","45.47","MONTREAL/PIERRE ELLIOTT TRUDEAU INTL A","7025250","2011-12-21 12:00","2011","12","21","12:00","-3.8","","-7.0","","78","","3","","17","","11.3","","100.56","","","","-10","","Cloudy"
"-73.75","45.47","MONTREAL/PIERRE ELLIOTT TRUDEAU INTL A","7025250","2011-12-21 13:00","2011","12","21","13:00","-3.5","","-6.7","","78","","3","","20","","11.3","","100.44","","","","-10","","Cloudy"
"-73.75","45.47","MONTREAL/PIERRE ELLIOTT TRUDEAU INTL A","7025250","2011-12-21 14:00","2011","12","21","14:00","-3.5","","-6.0","","83","","3","","20","","9.7","","100.35","","","","-10","","Freezing Rain"
"-73.75","45.47","MONTREAL/PIERRE ELLIOTT TRUDEAU INTL A","7025250","2011-12-21 15:00","2011","12","21","15:00","-3.3","","-5.6","","84","","2","","22","","8.0","","100.27","","","","-10","","Freezing Rain"
"-73.75","45.47","MONTREAL/PIERRE ELLIOTT TRUDEAU INTL A","7025250","2011-12-21 16:00","2011","12","21","16:00","-3.0","","-5.4","","83","","3","","17","","8.0","","100.16","","","","-9","","Freezing Rain,Fog"
"-73.75","45.47","MONTREAL/PIERRE ELLIOTT TRUDEAU INTL A","7025250","2011-12-21 17:00","2011","12","21","17:00","-3.0","","-5.2","","85","","3","","19","","4.8","","100.08","","","","-9","","Freezing Rain,Fog"
"-73.75","45.47","MONTREAL/PIERRE ELLIOTT TRUDEAU INTL A","7025250","2011-12-21 18:00","2011","12","21","18:00","-2.7","","-4.5","","87","","3","","19","","3.2","","99.99","","","","-8","","Freezing Drizzle,Fog"
"-73.75","45.47","MONTREAL/PIERRE ELLIOTT TRUDEAU INTL A","7025250","2011-12-21 19:00","2011","12","21","19:00","-2.2","","-4.0","","87","","2","","17","","2.4","","99.95","","","","-8","","Freezing Drizzle,Fog"
"-73.75","45.47","MONTREAL/PIERRE ELLIOTT TRUDEAU INTL A","7025250","2011-12-21 20:00","2011","12","21","20:00","-2.3","","-4.1","","87","","2","","17","","4.8","","99.87","","","","-8","","Freezing Rain,Fog"
"-73.75","45.47","MONTREAL/PIERRE ELLIOTT TRUDEAU INTL A","7025250","2011-12-21 21:00","2011","12","21","21:00","-1.4","","-2.9","","89","","4","","17","","6.4","","99.78","","","","-7","","Freezing Rain,Fog"
"-73.75","45.47","MONTREAL/PIERRE ELLIOTT TRUDEAU INTL A","7025250","2011-12-21 22:00","2011","12","21","22:00","-0.7","","-2.2","","90","","7","","9","","4.8","","99.77","","","","-4","","Freezing Rain,Fog"
"-73.75","45.47","MONTREAL/PIERRE ELLIOTT TRUDEAU INTL A","7025250","2011-12-21 23:00","2011","12","21","23:00","-0.7","","-2.2","","90","","","","0","","8.0","","99.78","","","","","","Freezing Rain,Fog"
"-73.75","45.47","MONTREAL/PIERRE ELLIOTT TRUDEAU INTL A","7025250","2011-12-22 00:00","2011","12","22","00:00","-0.6","","-2.0","","90","","","","0","","4.0","","99.82","","","","","","Freezing Drizzle,Fog"
"-73.75","45.47","MONTREAL/PIERRE ELLIOTT TRUDEAU INTL A","7025250","2011-12-22 01:00","2011","12","22","01:00","-0.1","","-1.5","","90","","36","","9","E","4.8","","99.95","","","","-3","E","Freezing Rain,Fog"
"-73.75","45.47","MONTREAL/PIERRE ELLIOTT TRUDEAU INTL A","7025250","2011-12-22 02:00","2011","12","22","02:00","0.1","","-1.3","","90","","","","0","","6.4","","100.09","","","","","","Drizzle,Fog"
"-73.75","45.47","MONTREAL/PIERRE ELLIOTT TRUDEAU INTL A","7025250","2011-12-22 03:00","2011","12","22","03:00","0.4","","-0.9","","91","","","","0","","8.0","","100.36","","","","","","Fog"
"-73.75","45.47","MONTREAL/PIERRE ELLIOTT TRUDEAU INTL A","7025250","2011-12-22 04:00","2011","12","22","04:00","0.8","","-0.6","","90","","23","","11","E","9.7","","100.48","","","","","","Fog"
"-73.75","45.47","MONTREAL/PIERRE ELLIOTT TRUDEAU INTL A","7025250","2011-12-22 05:00","2011","12","22","05:00","0.9","","-0.6","","90","","26","","11","","12.9","","100.64","","","","","","Cloudy"
"-73.75","45.47","MONTREAL/PIERRE ELLIOTT TRUDEAU INTL A","7025250","2011-12-22 06:00","2011","12","22","06:00","0.8","","-0.8","","89","","25","","15","","16.1","","100.76","","","","","","Cloudy"
"-73.75","45.47","MONTREAL/PIERRE ELLIOTT TRUDEAU INTL A","7025250","2011-12-22 07:00","2011","12","22","07:00","0.9","","-0.9","","88","","24","","13","","12.9","","100.92","","","","","","Cloudy"
"-73.75","45.47","MONTREAL/PIERRE ELLIOTT TRUDEAU INTL A","7025250","2011-12-22 08:00","2011","12","22","08:00","0.8","","-1.3","","86","","25","","17","","24.1","","101.07","","","","","","Cloudy"
"-73.75","45.47","MONTREAL/PIERRE ELLIOTT TRUDEAU INTL A","7025250","2011-12-22 09:00","2011","12","22","09:00","0.7","","-2.9","","77","","26","","19","","24.1","","101.18","","","","","","Cloudy"
"-73.75","45.47","MONTREAL/PIERRE ELLIOTT TRUDEAU INTL A","7025250","2011-12-22 10:00","2011","12","22","10:00","1.0","","-2.9","","75","","23","","11","","24.1","","101.14","","","","","","Mostly Cloudy"
"-73.75","45.47","MONTREAL/PIERRE ELLIOTT TRUDEAU INTL A","7025250","2011-12-22 11:00","2011","12","22","11:00","1.2","","-1.9","","80","","24","","17","","24.1","","101.14","","","","","","Mainly Clear"
"-73.75","45.47","MONTREAL/PIERRE ELLIOTT TRUDEAU INTL A","7025250","2011-12-22 12:00","2011","12","22","12:00","2.2","","-1.8","","75","","27","","17","","24.1","","101.17","","","","","","Mainly Clear"
"-73.75","45.47","MONTREAL/PIERRE ELLIOTT TRUDEAU INTL A","7025250","2011-12-22 13:00","2011","12","22","13:00","3.1","","-1.8","","70","","27","","17","","24.1","","101.18","","","","","","Mainly Clear"
"-73.75","45.47","MONTREAL/PIERRE ELLIOTT TRUDEAU INTL A","7025250","2011-12-22 14:00","2011","12","22","14:00","3.7","","-0.9","","72","","23","","15","","24.1","","101.21","","","","","","Mainly Clear"
"-73.75","45.47","MONTREAL/PIERRE ELLIOTT TRUDEAU INTL A","7025250","2011-12-22 15:00","2011","12","22","15:00","2.6","","-1.4","","75","","23","","15","","24.1","","101.26","","","","","","Mostly Cloudy"
"-73.75","45.47","MONTREAL/PIERRE ELLIOTT TRUDEAU INTL A","7025250","2011-12-22 16:00","2011","12","22","16:00","2.5","","-2.1","","72","","26","","9","","24.1","","101.36","","","","","","Cloudy"
"-73.75","45.47","MONTREAL/PIERRE ELLIOTT TRUDEAU INTL A","7025250","2011-12-22 17:00","2011","12","22","17:00","1.8","","-1.9","","76","","28","","7","","25.0","","101.31","","","","","","Cloudy"
"-73.75","45.47","MONTREAL/PIERRE ELLIOTT TRUDEAU INTL A","7025250","2011-12-22 18:00","2011","12","22","18:00","2.1","","-1.5","","77","","25","","7","","25.0","","101.42","","","","","","Snow Showers"
"-73.75","45.47","MONTREAL/PIERRE ELLIOTT TRUDEAU INTL A","7025250","2011-12-22 19:00","2011","12","22","19:00","2.2","","-0.9","","80","","23","","6","","25.0","","101.43","","","","","","Snow"
"-73.75","45.47","MONTREAL/PIERRE ELLIOTT TRUDEAU INTL A","7025250","2011-12-22 20:00","2011","12","22","20:00","2.1","","-0.8","","81","","21","","7","","25.0","","101.35","","","","","","Snow"
"-73.75","45.47","MONTREAL/PIERRE ELLIOTT TRUDEAU INTL A","7025250","2011-12-22 21:00","2011","12","22","21:00","1.7","","-0.9","","83","","18","","7","","25.0","","101.27","","","","","","Snow"
"-73.75","45.47","MONTREAL/PIERRE ELLIOTT TRUDEAU INTL A","7025250","2011-12-22 22:00","2011","12","22","22:00","1.6","","-0.9","","83","","","","0","","25.0","","101.24","","","","","","Cloudy"
"-73.75","45.47","MONTREAL/PIERRE ELLIOTT TRUDEAU INTL A","7025250","2011-12-22 23:00","2011","12","22","23:00","1.7","","-0.9","","83","","","","0","","9.7","","101.24","","","","","","Snow"
"-73.75","45.47","MONTREAL/PIERRE ELLIOTT TRUDEAU INTL A","7025250","2011-12-23 00:00","2011","12","23","00:00","1.3","","-0.9","","85","","","","0","","6.4","","101.23","","","","","","Snow"
"-73.75","45.47","MONTREAL/PIERRE ELLIOTT TRUDEAU INTL A","7025250","2011-12-23 01:00","2011","12","23","01:00","0.2","","-1.3","","90","","18","","4","","2.4","","101.24","","","","","","Snow"
"-73.75","45.47","MONTREAL/PIERRE ELLIOTT TRUDEAU INTL A","7025250","2011-12-23 02:00","2011","12","23","02:00","0.2","","-1.2","","90","","","","0","","1.6","","101.18","","","","","","Snow"
"-73.75","45.47","MONTREAL/PIERRE ELLIOTT TRUDEAU INTL A","7025250","2011-12-23 03:00","2011","12","23","03:00","0.2","","-1.1","","91","","4","","6","","2.8","","101.07","","","","","","Snow"
"-73.75","45.47","MONTREAL/PIERRE ELLIOTT TRUDEAU INTL A","7025250","2011-12-23 04:00","2011","12","23","04:00","0.2","","-1.2","","90","","4","","6","","2.8","","100.97","","","","","","Snow"
"-73.75","45.47","MONTREAL/PIERRE ELLIOTT TRUDEAU INTL A","7025250","2011-12-23 05:00","2011","12","23","05:00","0.2","","-1.2","","90","","2","","6","","2.8","","100.98","","","","","","Snow"
"-73.75","45.47","MONTREAL/PIERRE ELLIOTT TRUDEAU INTL A","7025250","2011-12-23 06:00","2011","12","23","06:00","0.2","","-1.3","","90","","36","","7","","2.4","","101.01","","","","","","Snow"
"-73.75","45.47","MONTREAL/PIERRE ELLIOTT TRUDEAU INTL A","7025250","2011-12-23 07:00","2011","12","23","07:00","0.2","","-1.4","","89","","1","","7","","2.4","","101.06","","","","","","Snow"
"-73.75","45.47","MONTREAL/PIERRE ELLIOTT TRUDEAU INTL A","7025250","2011-12-23 08:00","2011","12","23","08:00","-0.3","","-2.1","","88","","3","","19","","2.8","","101.05","","","","-5","","Snow"
"-73.75","45.47","MONTREAL/PIERRE ELLIOTT TRUDEAU INTL A","7025250","2011-12-23 09:00","2011","12","23","09:00","-0.9","","-3.1","","85","","3","","15","","3.2","","101.14","","","","-6","","Snow"
"-73.75","45.47","MONTREAL/PIERRE ELLIOTT TRUDEAU INTL A","7025250","2011-12-23 10:00","2011","12","23","10:00","-1.4","","-3.7","","84","","3","","15","","4.0","","101.22","","","","-6","","Snow"
"-73.75","45.47","MONTREAL/PIERRE ELLIOTT TRUDEAU INTL A","7025250","2011-12-23 11:00","2011","12","23","11:00","-2.2","","-4.8","","82","","2","","15","","4.8","","101.25","","","","-7","","Snow"
"-73.75","45.47","MONTREAL/PIERRE ELLIOTT TRUDEAU INTL A","7025250","2011-12-23 12:00","2011","12","23","12:00","-3.2","","-6.0","","81","","36","","13","","8.0","","101.30","","","","-8","","Snow"
"-73.75","45.47","MONTREAL/PIERRE ELLIOTT TRUDEAU INTL A","7025250","2011-12-23 13:00","2011","12","23","13:00","-4.2","","-7.1","","80","","2","","11","","2.4","","101.40","","","","-9","","Snow"
"-73.75","45.47","MONTREAL/PIERRE ELLIOTT TRUDEAU INTL A","7025250","2011-12-23 14:00","2011","12","23","14:00","-4.4","","-6.8","","83","","5","","7","","1.6","","101.50","","","","-8","","Snow"
"-73.75","45.47","MONTREAL/PIERRE ELLIOTT TRUDEAU INTL A","7025250","2011-12-23 15:00","2011","12","23","15:00","-4.5","","-7.2","","81","","1","","7","","24.1","","101.59","","","","-8","","Snow"
"-73.75","45.47","MONTREAL/PIERRE ELLIOTT TRUDEAU INTL A","7025250","2011-12-23 16:00","2011","12","23","16:00","-4.5","","-9.0","","71","","31","","13","","24.1","","101.72","","","","-10","","Mostly Cloudy"
"-73.75","45.47","MONTREAL/PIERRE ELLIOTT TRUDEAU INTL A","7025250","2011-12-23 17:00","2011","12","23","17:00","-5.4","","-10.3","","68","","3","","17","","24.1","","101.88","","","","-11","","Snow Showers"
"-73.75","45.47","MONTREAL/PIERRE ELLIOTT TRUDEAU INTL A","7025250","2011-12-23 18:00","2011","12","23","18:00","-6.5","","-11.5","","68","","2","","15","","16.1","","102.02","","","","-12","","Snow"
"-73.75","45.47","MONTREAL/PIERRE ELLIOTT TRUDEAU INTL A","7025250","2011-12-23 19:00","2011","12","23","19:00","-7.9","","-14.0","","62","","36","","17","","25.0","","102.11","","","","-15","","Cloudy"
"-73.75","45.47","MONTREAL/PIERRE ELLIOTT TRUDEAU INTL A","7025250","2011-12-23 20:00","2011","12","23","20:00","-9.6","","-16.4","","58","","36","","17","","25.0","","102.21","","","","-17","","Cloudy"
"-73.75","45.47","MONTREAL/PIERRE ELLIOTT TRUDEAU INTL A","7025250","2011-12-23 21:00","2011","12","23","21:00","-10.8","","-17.7","","57","","3","","19","","25.0","","102.28","","","","-19","","Mostly Cloudy"
"-73.75","45.47","MONTREAL/PIERRE ELLIOTT TRUDEAU INTL A","7025250","2011-12-23 22:00","2011","12","23","22:00","-12.0","","-18.9","","56","","2","","19","","25.0","","102.38","","","","-20","","Mostly Cloudy"
"-73.75","45.47","MONTREAL/PIERRE ELLIOTT TRUDEAU INTL A","7025250","2011-12-23 23:00","2011","12","23","23:00","-12.8","","-19.7","","56","","4","","15","","25.0","","102.42","","","","-20","","Mostly Cloudy"
"-73.75","45.47","MONTREAL/PIERRE ELLIOTT TRUDEAU INTL A","7025250","2011-12-24 00:00","2011","12","24","00:00","-13.7","","-20.0","","59","","3","","17","","25.0","","102.46","","","","-22","","Cloudy"
"-73.75","45.47","MONTREAL/PIERRE ELLIOTT TRUDEAU INTL A","7025250","2011-12-24 01:00","2011","12","24","01:00","-14.2","","-20.4","","59","","2","","17","","25.0","","102.46","","","","-22","","Cloudy"
"-73.75","45.47","MONTREAL/PIERRE ELLIOTT TRUDEAU INTL A","7025250","2011-12-24 02:00","2011","12","24","02:00","-14.5","","-21.0","","58","","3","","13","","25.0","","102.54","","","","-22","","Cloudy"
"-73.75","45.47","MONTREAL/PIERRE ELLIOTT TRUDEAU INTL A","7025250","2011-12-24 03:00","2011","12","24","03:00","-15.1","","-20.8","","62","","2","","19","","25.0","","102.64","","","","-24","","Cloudy"
"-73.75","45.47","MONTREAL/PIERRE ELLIOTT TRUDEAU INTL A","7025250","2011-12-24 04:00","2011","12","24","04:00","-15.6","","-21.3","","62","","3","","15","","25.0","","102.70","","","","-24","","Cloudy"
"-73.75","45.47","MONTREAL/PIERRE ELLIOTT TRUDEAU INTL A","7025250","2011-12-24 05:00","2011","12","24","05:00","-15.7","","-21.2","","63","","2","","15","","25.0","","102.75","","","","-24","","Cloudy"
"-73.75","45.47","MONTREAL/PIERRE ELLIOTT TRUDEAU INTL A","7025250","2011-12-24 06:00","2011","12","24","06:00","-16.3","","-21.8","","62","","3","","11","","25.0","","102.81","","","","-23","","Cloudy"
"-73.75","45.47","MONTREAL/PIERRE ELLIOTT TRUDEAU INTL A","7025250","2011-12-24 07:00","2011","12","24","07:00","-16.0","","-23.2","","54","","4","","13","","25.0","","102.89","","","","-24","","Cloudy"
"-73.75","45.47","MONTREAL/PIERRE ELLIOTT TRUDEAU INTL A","7025250","2011-12-24 08:00","2011","12","24","08:00","-16.3","","-22.7","","58","","4","","11","","24.1","","102.96","","","","-23","","Mostly Cloudy"
"-73.75","45.47","MONTREAL/PIERRE ELLIOTT TRUDEAU INTL A","7025250","2011-12-24 09:00","2011","12","24","09:00","-16.6","","-22.9","","58","","36","","7","","24.1","","103.06","","","","-22","","Mainly Clear"
"-73.75","45.47","MONTREAL/PIERRE ELLIOTT TRUDEAU INTL A","7025250","2011-12-24 10:00","2011","12","24","10:00","-15.9","","-21.7","","61","","3","","9","","48.3","","103.11","","","","-22","","Mainly Clear"
"-73.75","45.47","MONTREAL/PIERRE ELLIOTT TRUDEAU INTL A","7025250","2011-12-24 11:00","2011","12","24","11:00","-15.3","","-21.9","","57","","5","","9","","48.3","","103.13","","","","-21","","Mainly Clear"
"-73.75","45.47","MONTREAL/PIERRE ELLIOTT TRUDEAU INTL A","7025250","2011-12-24 12:00","2011","12","24","12:00","-14.6","","-22.2","","52","","4","","7","","48.3","","103.06","","","","-19","","Mainly Clear"
"-73.75","45.47","MONTREAL/PIERRE ELLIOTT TRUDEAU INTL A","7025250","2011-12-24 13:00","2011","12","24","13:00","-14.1","","-22.0","","51","","","","0","","48.3","","103.09","","","","","","Mainly Clear"
"-73.75","45.47","MONTREAL/PIERRE ELLIOTT TRUDEAU INTL A","7025250","2011-12-24 14:00","2011","12","24","14:00","-13.4","","-21.7","","50","","3","","4","","48.3","","103.02","","","","-16","","Mainly Clear"
"-73.75","45.47","MONTREAL/PIERRE ELLIOTT TRUDEAU INTL A","7025250","2011-12-24 15:00","2011","12","24","15:00","-13.4","","-21.9","","49","","35","","4","","48.3","","103.06","","","","-16","","Mainly Clear"
"-73.75","45.47","MONTREAL/PIERRE ELLIOTT TRUDEAU INTL A","7025250","2011-12-24 16:00","2011","12","24","16:00","-13.3","","-21.9","","48","","","","0","","48.3","","103.01","","","","","","Mainly Clear"
"-73.75","45.47","MONTREAL/PIERRE ELLIOTT TRUDEAU INTL A","7025250","2011-12-24 17:00","2011","12","24","17:00","-14.4","","-18.7","","70","","13","","11","","25.0","","103.00","","","","-21","","Clear"
"-73.75","45.47","MONTREAL/PIERRE ELLIOTT TRUDEAU INTL A","7025250","2011-12-24 18:00","2011","12","24","18:00","-14.8","","-19.1","","70","","12","","11","","25.0","","102.98","","","","-21","","Clear"
"-73.75","45.47","MONTREAL/PIERRE ELLIOTT TRUDEAU INTL A","7025250","2011-12-24 19:00","2011","12","24","19:00","-15.1","","-19.4","","70","","9","","17","","25.0","","102.90","","","","-24","","Mainly Clear"
"-73.75","45.47","MONTREAL/PIERRE ELLIOTT TRUDEAU INTL A","7025250","2011-12-24 20:00","2011","12","24","20:00","-15.4","","-20.7","","64","","5","","7","","25.0","","102.93","","","","-20","","Clear"
"-73.75","45.47","MONTREAL/PIERRE ELLIOTT TRUDEAU INTL A","7025250","2011-12-24 21:00","2011","12","24","21:00","-15.2","","-21.2","","60","","5","","7","","25.0","","102.87","","","","-20","","Clear"
"-73.75","45.47","MONTREAL/PIERRE ELLIOTT TRUDEAU INTL A","7025250","2011-12-24 22:00","2011","12","24","22:00","-14.9","","-20.8","","61","","5","","11","","25.0","","102.81","","","","-21","","Mostly Cloudy"
"-73.75","45.47","MONTREAL/PIERRE ELLIOTT TRUDEAU INTL A","7025250","2011-12-24 23:00","2011","12","24","23:00","-14.8","","-21.2","","58","","6","","7","","25.0","","102.74","","","","-20","","Mostly Cloudy"
"-73.75","45.47","MONTREAL/PIERRE ELLIOTT TRUDEAU INTL A","7025250","2011-12-25 00:00","2011","12","25","00:00","-15.2","","-21.2","","60","","5","","15","","25.0","","102.60","","","","-23","","Cloudy"
"-73.75","45.47","MONTREAL/PIERRE ELLIOTT TRUDEAU INTL A","7025250","2011-12-25 01:00","2011","12","25","01:00","-15.1","","-20.6","","63","","4","","11","","25.0","","102.57","","","","-22","","Cloudy"
"-73.75","45.47","MONTREAL/PIERRE ELLIOTT TRUDEAU INTL A","7025250","2011-12-25 02:00","2011","12","25","02:00","-15.2","","-20.4","","64","","5","","17","","25.0","","102.44","","","","-24","","Mostly Cloudy"
"-73.75","45.47","MONTREAL/PIERRE ELLIOTT TRUDEAU INTL A","7025250","2011-12-25 03:00","2011","12","25","03:00","-14.4","","-18.8","","69","","5","","13","","25.0","","102.30","","","","-22","","Cloudy"
"-73.75","45.47","MONTREAL/PIERRE ELLIOTT TRUDEAU INTL A","7025250","2011-12-25 04:00","2011","12","25","04:00","-13.9","","-18.2","","70","","3","","11","","25.0","","102.21","","","","-20","","Cloudy"
"-73.75","45.47","MONTREAL/PIERRE ELLIOTT TRUDEAU INTL A","7025250","2011-12-25 05:00","2011","12","25","05:00","-14.1","","-18.5","","69","","3","","17","","25.0","","102.04","","","","-22","","Cloudy"
"-73.75","45.47","MONTREAL/PIERRE ELLIOTT TRUDEAU INTL A","7025250","2011-12-25 06:00","2011","12","25","06:00","-13.9","","-17.8","","72","","4","","17","","25.0","","101.95","","","","-22","","Cloudy"
"-73.75","45.47","MONTREAL/PIERRE ELLIOTT TRUDEAU INTL A","7025250","2011-12-25 07:00","2011","12","25","07:00","-13.1","","-16.8","","74","","3","","19","","25.0","","101.81","","","","-22","","Snow"
"-73.75","45.47","MONTREAL/PIERRE ELLIOTT TRUDEAU INTL A","7025250","2011-12-25 08:00","2011","12","25","08:00","-12.9","","-16.4","","75","","4","","17","","4.0","","101.73","","","","-21","","Snow"
"-73.75","45.47","MONTREAL/PIERRE ELLIOTT TRUDEAU INTL A","7025250","2011-12-25 09:00","2011","12","25","09:00","-11.9","","-15.3","","76","","4","","19","","4.0","","101.62","","","","-20","","Snow"
"-73.75","45.47","MONTREAL/PIERRE ELLIOTT TRUDEAU INTL A","7025250","2011-12-25 10:00","2011","12","25","10:00","-11.5","","-14.6","","78","","3","","15","","6.4","","101.52","","","","-19","","Snow"
"-73.75","45.47","MONTREAL/PIERRE ELLIOTT TRUDEAU INTL A","7025250","2011-12-25 11:00","2011","12","25","11:00","-10.6","","-13.4","","80","","3","","15","","2.8","","101.35","","","","-17","","Snow"
"-73.75","45.47","MONTREAL/PIERRE ELLIOTT TRUDEAU INTL A","7025250","2011-12-25 12:00","2011","12","25","12:00","-9.5","","-12.1","","81","","3","","15","","3.6","","101.15","","","","-16","","Snow"
"-73.75","45.47","MONTREAL/PIERRE ELLIOTT TRUDEAU INTL A","7025250","2011-12-25 13:00","2011","12","25","13:00","-8.9","","-11.4","","82","","2","","13","","2.0","","101.02","","","","-15","","Snow"
"-73.75","45.47","MONTREAL/PIERRE ELLIOTT TRUDEAU INTL A","7025250","2011-12-25 14:00","2011","12","25","14:00","-9.4","","-12.0","","81","","2","","13","","1.6","","100.92","","","","-15","","Snow"
"-73.75","45.47","MONTREAL/PIERRE ELLIOTT TRUDEAU INTL A","7025250","2011-12-25 15:00","2011","12","25","15:00","-9.0","","-11.5","","82","","2","","15","","2.4","","100.89","","","","-16","","Snow"
"-73.75","45.47","MONTREAL/PIERRE ELLIOTT TRUDEAU INTL A","7025250","2011-12-25 16:00","2011","12","25","16:00","-9.1","","-11.8","","81","","3","","15","","2.4","","100.86","","","","-16","","Snow"
"-73.75","45.47","MONTREAL/PIERRE ELLIOTT TRUDEAU INTL A","7025250","2011-12-25 17:00","2011","12","25","17:00","-8.7","","-11.2","","82","","3","","13","","2.4","","100.81","","","","-15","","Snow"
"-73.75","45.47","MONTREAL/PIERRE ELLIOTT TRUDEAU INTL A","7025250","2011-12-25 18:00","2011","12","25","18:00","-8.3","","-10.7","","83","","2","","9","","4.8","","100.80","","","","-13","","Snow"
"-73.75","45.47","MONTREAL/PIERRE ELLIOTT TRUDEAU INTL A","7025250","2011-12-25 19:00","2011","12","25","19:00","-7.9","","-10.2","","84","","2","","11","","3.2","","100.77","","","","-13","","Snow"
"-73.75","45.47","MONTREAL/PIERRE ELLIOTT TRUDEAU INTL A","7025250","2011-12-25 20:00","2011","12","25","20:00","-7.6","","-9.8","","84","","1","","7","","2.0","","100.70","","","","-11","","Snow"
"-73.75","45.47","MONTREAL/PIERRE ELLIOTT TRUDEAU INTL A","7025250","2011-12-25 21:00","2011","12","25","21:00","-7.5","","-9.7","","84","","2","","11","","6.4","","100.65","","","","-13","","Snow"
"-73.75","45.47","MONTREAL/PIERRE ELLIOTT TRUDEAU INTL A","7025250","2011-12-25 22:00","2011","12","25","22:00","-7.1","","-9.3","","84","","2","","7","","6.4","","100.60","","","","-11","","Snow"
"-73.75","45.47","MONTREAL/PIERRE ELLIOTT TRUDEAU INTL A","7025250","2011-12-25 23:00","2011","12","25","23:00","-6.9","","-9.2","","84","","1","","9","","8.0","","100.59","","","","-11","","Snow"
"-73.75","45.47","MONTREAL/PIERRE ELLIOTT TRUDEAU INTL A","7025250","2011-12-26 00:00","2011","12","26","00:00","-6.8","","-9.3","","82","","35","","9","","8.0","","100.60","","","","-11","","Snow"
"-73.75","45.47","MONTREAL/PIERRE ELLIOTT TRUDEAU INTL A","7025250","2011-12-26 01:00","2011","12","26","01:00","-6.5","","-9.1","","82","","35","","9","","9.7","","100.67","","","","-11","","Snow"
"-73.75","45.47","MONTREAL/PIERRE ELLIOTT TRUDEAU INTL A","7025250","2011-12-26 02:00","2011","12","26","02:00","-6.2","","-8.7","","82","","33","","6","","12.9","","100.79","","","","-9","","Cloudy"
"-73.75","45.47","MONTREAL/PIERRE ELLIOTT TRUDEAU INTL A","7025250","2011-12-26 03:00","2011","12","26","03:00","-6.3","","-8.7","","83","","27","","7","","12.9","","100.95","","","","-10","","Cloudy"
"-73.75","45.47","MONTREAL/PIERRE ELLIOTT TRUDEAU INTL A","7025250","2011-12-26 04:00","2011","12","26","04:00","-6.6","","-8.9","","84","","","","0","","25.0","","101.05","","","","","","Mostly Cloudy"
"-73.75","45.47","MONTREAL/PIERRE ELLIOTT TRUDEAU INTL A","7025250","2011-12-26 05:00","2011","12","26","05:00","-8.5","","-10.8","","83","","25","","6","","25.0","","101.13","","","","-12","","Mainly Clear"
"-73.75","45.47","MONTREAL/PIERRE ELLIOTT TRUDEAU INTL A","7025250","2011-12-26 06:00","2011","12","26","06:00","-9.1","","-11.4","","83","","27","","7","","25.0","","101.28","","","","-13","","Clear"
"-73.75","45.47","MONTREAL/PIERRE ELLIOTT TRUDEAU INTL A","7025250","2011-12-26 07:00","2011","12","26","07:00","-9.2","","-11.6","","83","","28","","7","","24.1","","101.46","","","","-13","","Mainly Clear"
"-73.75","45.47","MONTREAL/PIERRE ELLIOTT TRUDEAU INTL A","7025250","2011-12-26 08:00","2011","12","26","08:00","-7.1","","-9.4","","84","","28","","13","","24.1","","101.59","","","","-13","","Clear"
"-73.75","45.47","MONTREAL/PIERRE ELLIOTT TRUDEAU INTL A","7025250","2011-12-26 09:00","2011","12","26","09:00","-5.1","","-7.9","","81","","26","","20","","24.1","","101.71","","","","-12","","Clear"
"-73.75","45.47","MONTREAL/PIERRE ELLIOTT TRUDEAU INTL A","7025250","2011-12-26 10:00","2011","12","26","10:00","-4.6","","-8.1","","76","","27","","11","","48.3","","101.76","","","","-9","","Mainly Clear"
"-73.75","45.47","MONTREAL/PIERRE ELLIOTT TRUDEAU INTL A","7025250","2011-12-26 11:00","2011","12","26","11:00","-3.8","","-7.9","","73","","27","","17","","48.3","","101.78","","","","-10","","Clear"
"-73.75","45.47","MONTREAL/PIERRE ELLIOTT TRUDEAU INTL A","7025250","2011-12-26 12:00","2011","12","26","12:00","-3.2","","-8.3","","68","","26","","6","","48.3","","101.73","","","","-6","","Mainly Clear"
"-73.75","45.47","MONTREAL/PIERRE ELLIOTT TRUDEAU INTL A","7025250","2011-12-26 13:00","2011","12","26","13:00","-2.3","","-7.8","","66","","27","","19","","48.3","","101.70","","","","-8","","Mostly Cloudy"
"-73.75","45.47","MONTREAL/PIERRE ELLIOTT TRUDEAU INTL A","7025250","2011-12-26 14:00","2011","12","26","14:00","-1.9","","-7.3","","67","","23","","13","","48.3","","101.68","","","","-6","","Mostly Cloudy"
"-73.75","45.47","MONTREAL/PIERRE ELLIOTT TRUDEAU INTL A","7025250","2011-12-26 15:00","2011","12","26","15:00","-1.8","","-7.1","","67","","24","","15","","24.1","","101.67","","","","-7","","Cloudy"
"-73.75","45.47","MONTREAL/PIERRE ELLIOTT TRUDEAU INTL A","7025250","2011-12-26 16:00","2011","12","26","16:00","-1.3","","-6.0","","70","","22","","20","","25.0","","101.67","","","","-7","","Cloudy"
"-73.75","45.47","MONTREAL/PIERRE ELLIOTT TRUDEAU INTL A","7025250","2011-12-26 17:00","2011","12","26","17:00","-1.0","","-5.7","","70","","22","","24","","25.0","","101.66","","","","-7","","Mostly Cloudy"
"-73.75","45.47","MONTREAL/PIERRE ELLIOTT TRUDEAU INTL A","7025250","2011-12-26 18:00","2011","12","26","18:00","-0.3","","-5.1","","70","","23","","17","","25.0","","101.59","","","","-5","","Mostly Cloudy"
"-73.75","45.47","MONTREAL/PIERRE ELLIOTT TRUDEAU INTL A","7025250","2011-12-26 19:00","2011","12","26","19:00","0.0","","-4.1","","74","","21","","11","","25.0","","101.56","","","","-4","","Mostly Cloudy"
"-73.75","45.47","MONTREAL/PIERRE ELLIOTT TRUDEAU INTL A","7025250","2011-12-26 20:00","2011","12","26","20:00","0.5","","-3.7","","73","","22","","19","","25.0","","101.55","","","","","","Mostly Cloudy"
"-73.75","45.47","MONTREAL/PIERRE ELLIOTT TRUDEAU INTL A","7025250","2011-12-26 21:00","2011","12","26","21:00","0.1","","-3.9","","74","","20","","19","","25.0","","101.45","","","","","","Mostly Cloudy"
"-73.75","45.47","MONTREAL/PIERRE ELLIOTT TRUDEAU INTL A","7025250","2011-12-26 22:00","2011","12","26","22:00","0.0","","-4.0","","74","","20","","11","","25.0","","101.41","","","","-4","","Mostly Cloudy"
"-73.75","45.47","MONTREAL/PIERRE ELLIOTT TRUDEAU INTL A","7025250","2011-12-26 23:00","2011","12","26","23:00","-1.5","","-4.6","","79","","19","","13","","25.0","","101.32","","","","-6","","Mainly Clear"
"-73.75","45.47","MONTREAL/PIERRE ELLIOTT TRUDEAU INTL A","7025250","2011-12-27 00:00","2011","12","27","00:00","-2.1","","-5.4","","78","","17","","17","","25.0","","101.21","","","","-7","","Mostly Cloudy"
"-73.75","45.47","MONTREAL/PIERRE ELLIOTT TRUDEAU INTL A","7025250","2011-12-27 01:00","2011","12","27","01:00","-1.6","","-5.5","","75","","18","","19","","25.0","","101.09","","","","-7","","Cloudy"
"-73.75","45.47","MONTREAL/PIERRE ELLIOTT TRUDEAU INTL A","7025250","2011-12-27 02:00","2011","12","27","02:00","-1.5","","-5.5","","74","","16","","15","","25.0","","101.02","","","","-6","","Mostly Cloudy"
"-73.75","45.47","MONTREAL/PIERRE ELLIOTT TRUDEAU INTL A","7025250","2011-12-27 03:00","2011","12","27","03:00","-1.4","","-5.4","","74","","17","","15","","25.0","","100.94","","","","-6","","Mostly Cloudy"
"-73.75","45.47","MONTREAL/PIERRE ELLIOTT TRUDEAU INTL A","7025250","2011-12-27 04:00","2011","12","27","04:00","-1.8","","-5.7","","75","","18","","17","","25.0","","100.91","","","","-7","","Mostly Cloudy"
"-73.75","45.47","MONTREAL/PIERRE ELLIOTT TRUDEAU INTL A","7025250","2011-12-27 05:00","2011","12","27","05:00","-1.7","","-5.6","","75","","16","","15","","25.0","","100.83","","","","-7","","Mostly Cloudy"
"-73.75","45.47","MONTREAL/PIERRE ELLIOTT TRUDEAU INTL A","7025250","2011-12-27 06:00","2011","12","27","06:00","-1.3","","-5.2","","75","","16","","17","","25.0","","100.72","","","","-6","","Mostly Cloudy"
"-73.75","45.47","MONTREAL/PIERRE ELLIOTT TRUDEAU INTL A","7025250","2011-12-27 07:00","2011","12","27","07:00","-1.2","","-5.2","","74","","16","","17","","25.0","","100.67","","","","-6","","Cloudy"
"-73.75","45.47","MONTREAL/PIERRE ELLIOTT TRUDEAU INTL A","7025250","2011-12-27 08:00","2011","12","27","08:00","-1.1","","-4.8","","76","","17","","15","","48.3","","100.60","","","","-6","","Cloudy"
"-73.75","45.47","MONTREAL/PIERRE ELLIOTT TRUDEAU INTL A","7025250","2011-12-27 09:00","2011","12","27","09:00","-0.6","","-4.2","","77","","16","","9","","48.3","","100.59","","","","-4","","Cloudy"
"-73.75","45.47","MONTREAL/PIERRE ELLIOTT TRUDEAU INTL A","7025250","2011-12-27 10:00","2011","12","27","10:00","0.1","","-3.6","","76","","16","","15","","48.3","","100.62","","","","","","Cloudy"
"-73.75","45.47","MONTREAL/PIERRE ELLIOTT TRUDEAU INTL A","7025250","2011-12-27 11:00","2011","12","27","11:00","0.7","","-3.2","","75","","17","","15","","48.3","","100.54","","","","","","Cloudy"
"-73.75","45.47","MONTREAL/PIERRE ELLIOTT TRUDEAU INTL A","7025250","2011-12-27 12:00","2011","12","27","12:00","1.1","","-2.7","","76","","15","","17","","48.3","","100.34","","","","","","Cloudy"
"-73.75","45.47","MONTREAL/PIERRE ELLIOTT TRUDEAU INTL A","7025250","2011-12-27 13:00","2011","12","27","13:00","1.5","","-2.6","","74","","14","","11","","48.3","","100.18","","","","","","Cloudy"
"-73.75","45.47","MONTREAL/PIERRE ELLIOTT TRUDEAU INTL A","7025250","2011-12-27 14:00","2011","12","27","14:00","2.0","","-2.4","","73","","16","","7","","48.3","","100.13","","","","","","Cloudy"
"-73.75","45.47","MONTREAL/PIERRE ELLIOTT TRUDEAU INTL A","7025250","2011-12-27 15:00","2011","12","27","15:00","2.4","","-2.4","","71","","9","","4","","24.1","","100.10","","","","","","Cloudy"
"-73.75","45.47","MONTREAL/PIERRE ELLIOTT TRUDEAU INTL A","7025250","2011-12-27 16:00","2011","12","27","16:00","2.1","","-2.5","","72","","12","","9","","25.0","","100.00","","","","","","Cloudy"
"-73.75","45.47","MONTREAL/PIERRE ELLIOTT TRUDEAU INTL A","7025250","2011-12-27 17:00","2011","12","27","17:00","2.1","","-2.5","","72","","15","","15","","25.0","","99.88","","","","","","Rain Showers"
"-73.75","45.47","MONTREAL/PIERRE ELLIOTT TRUDEAU INTL A","7025250","2011-12-27 18:00","2011","12","27","18:00","2.3","","-2.1","","73","","10","","13","","25.0","","99.78","","","","","","Rain"
"-73.75","45.47","MONTREAL/PIERRE ELLIOTT TRUDEAU INTL A","7025250","2011-12-27 19:00","2011","12","27","19:00","1.9","","-0.9","","82","","13","","13","","25.0","","99.66","","","","","","Rain"
"-73.75","45.47","MONTREAL/PIERRE ELLIOTT TRUDEAU INTL A","7025250","2011-12-27 20:00","2011","12","27","20:00","1.8","","-0.4","","85","","9","","13","","25.0","","99.43","","","","","","Rain"
"-73.75","45.47","MONTREAL/PIERRE ELLIOTT TRUDEAU INTL A","7025250","2011-12-27 21:00","2011","12","27","21:00","1.7","","0.1","","89","","8","","24","","12.9","","99.10","","","","","","Rain"
"-73.75","45.47","MONTREAL/PIERRE ELLIOTT TRUDEAU INTL A","7025250","2011-12-27 22:00","2011","12","27","22:00","1.5","","-0.2","","88","","5","","19","","12.9","","98.85","","","","","","Rain"
"-73.75","45.47","MONTREAL/PIERRE ELLIOTT TRUDEAU INTL A","7025250","2011-12-27 23:00","2011","12","27","23:00","1.7","","-0.1","","88","","5","","20","","19.3","","98.61","","","","","","Rain"
"-73.75","45.47","MONTREAL/PIERRE ELLIOTT TRUDEAU INTL A","7025250","2011-12-28 00:00","2011","12","28","00:00","1.5","","0.0","","90","","4","","20","","16.1","","98.41","","","","","","Rain"
"-73.75","45.47","MONTREAL/PIERRE ELLIOTT TRUDEAU INTL A","7025250","2011-12-28 01:00","2011","12","28","01:00","1.5","","0.1","","90","","4","","20","","16.1","","98.34","","","","","","Rain"
"-73.75","45.47","MONTREAL/PIERRE ELLIOTT TRUDEAU INTL A","7025250","2011-12-28 02:00","2011","12","28","02:00","1.5","","0.3","","92","","7","","6","","25.0","","98.34","","","","","","Cloudy"
"-73.75","45.47","MONTREAL/PIERRE ELLIOTT TRUDEAU INTL A","7025250","2011-12-28 03:00","2011","12","28","03:00","2.5","","1.4","","92","","22","","22","","19.3","","98.32","","","","","","Cloudy"
"-73.75","45.47","MONTREAL/PIERRE ELLIOTT TRUDEAU INTL A","7025250","2011-12-28 04:00","2011","12","28","04:00","2.3","","0.9","","90","","24","","26","","25.0","","98.40","","","","","","Cloudy"
"-73.75","45.47","MONTREAL/PIERRE ELLIOTT TRUDEAU INTL A","7025250","2011-12-28 05:00","2011","12","28","05:00","2.0","","0.6","","90","","22","","22","","25.0","","98.40","","","","","","Cloudy"
"-73.75","45.47","MONTREAL/PIERRE ELLIOTT TRUDEAU INTL A","7025250","2011-12-28 06:00","2011","12","28","06:00","1.5","","-0.1","","89","","25","","28","","25.0","","98.41","","","","","","Cloudy"
"-73.75","45.47","MONTREAL/PIERRE ELLIOTT TRUDEAU INTL A","7025250","2011-12-28 07:00","2011","12","28","07:00","1.1","","-0.7","","88","","25","","33","","25.0","","98.51","","","","","","Cloudy"
"-73.75","45.47","MONTREAL/PIERRE ELLIOTT TRUDEAU INTL A","7025250","2011-12-28 08:00","2011","12","28","08:00","1.1","","-1.3","","84","","26","","32","","24.1","","98.62","","","","","","Cloudy"
"-73.75","45.47","MONTREAL/PIERRE ELLIOTT TRUDEAU INTL A","7025250","2011-12-28 09:00","2011","12","28","09:00","-0.7","","-4.0","","78","","26","","33","","24.1","","98.80","","","","-8","","Cloudy"
"-73.75","45.47","MONTREAL/PIERRE ELLIOTT TRUDEAU INTL A","7025250","2011-12-28 10:00","2011","12","28","10:00","-2.4","","-6.0","","76","","27","","28","","19.3","","98.91","","","","-9","","Snow"
"-73.75","45.47","MONTREAL/PIERRE ELLIOTT TRUDEAU INTL A","7025250","2011-12-28 11:00","2011","12","28","11:00","-4.2","","-8.0","","75","","27","","39","","4.8","","98.97","","","","-13","","Snow"
"-73.75","45.47","MONTREAL/PIERRE ELLIOTT TRUDEAU INTL A","7025250","2011-12-28 12:00","2011","12","28","12:00","-6.2","","-9.3","","79","","27","","35","","2.0","","99.01","","","","-15","","Snow"
"-73.75","45.47","MONTREAL/PIERRE ELLIOTT TRUDEAU INTL A","7025250","2011-12-28 13:00","2011","12","28","13:00","-7.6","","-10.8","","78","","26","","32","","1.2","","99.16","","","","-17","","Snow,Blowing Snow"
"-73.75","45.47","MONTREAL/PIERRE ELLIOTT TRUDEAU INTL A","7025250","2011-12-28 14:00","2011","12","28","14:00","-8.6","","-11.7","","78","","25","","35","","1.2","","99.30","","","","-18","","Snow,Blowing Snow"
"-73.75","45.47","MONTREAL/PIERRE ELLIOTT TRUDEAU INTL A","7025250","2011-12-28 15:00","2011","12","28","15:00","-9.0","","-12.3","","77","","26","","43","","1.0","","99.45","","","","-20","","Snow,Blowing Snow"
"-73.75","45.47","MONTREAL/PIERRE ELLIOTT TRUDEAU INTL A","7025250","2011-12-28 16:00","2011","12","28","16:00","-9.6","","-12.4","","80","","26","","35","","0.8","","99.58","","","","-20","","Snow,Blowing Snow"
"-73.75","45.47","MONTREAL/PIERRE ELLIOTT TRUDEAU INTL A","7025250","2011-12-28 17:00","2011","12","28","17:00","-9.6","","-12.7","","78","","27","","30","","2.0","","99.72","","","","-19","","Snow,Blowing Snow"
"-73.75","45.47","MONTREAL/PIERRE ELLIOTT TRUDEAU INTL A","7025250","2011-12-28 18:00","2011","12","28","18:00","-9.6","","-14.3","","69","","27","","41","","6.4","","99.82","","","","-20","","Snow,Blowing Snow"
"-73.75","45.47","MONTREAL/PIERRE ELLIOTT TRUDEAU INTL A","7025250","2011-12-28 19:00","2011","12","28","19:00","-10.5","","-16.1","","63","","28","","30","","19.3","","99.95","","","","-20","","Snow"
"-73.75","45.47","MONTREAL/PIERRE ELLIOTT TRUDEAU INTL A","7025250","2011-12-28 20:00","2011","12","28","20:00","-11.5","","-17.4","","62","","27","","43","","25.0","","100.07","","","","-23","","Mainly Clear"
"-73.75","45.47","MONTREAL/PIERRE ELLIOTT TRUDEAU INTL A","7025250","2011-12-28 21:00","2011","12","28","21:00","-11.8","","-18.1","","59","","27","","32","","25.0","","100.15","","","","-22","","Clear"
"-73.75","45.47","MONTREAL/PIERRE ELLIOTT TRUDEAU INTL A","7025250","2011-12-28 22:00","2011","12","28","22:00","-12.5","","-18.7","","60","","26","","28","","25.0","","100.23","","","","-22","","Clear"
"-73.75","45.47","MONTREAL/PIERRE ELLIOTT TRUDEAU INTL A","7025250","2011-12-28 23:00","2011","12","28","23:00","-13.4","","-20.2","","57","","27","","33","","25.0","","100.32","","","","-24","","Clear"
"-73.75","45.47","MONTREAL/PIERRE ELLIOTT TRUDEAU INTL A","7025250","2011-12-29 00:00","2011","12","29","00:00","-14.1","","-20.7","","57","","27","","28","","25.0","","100.40","","","","-25","","Clear"
"-73.75","45.47","MONTREAL/PIERRE ELLIOTT TRUDEAU INTL A","7025250","2011-12-29 01:00","2011","12","29","01:00","-14.6","","-21.1","","58","","27","","35","","25.0","","100.46","","","","-26","","Clear"
"-73.75","45.47","MONTREAL/PIERRE ELLIOTT TRUDEAU INTL A","7025250","2011-12-29 02:00","2011","12","29","02:00","-15.3","","-21.9","","57","","26","","33","","25.0","","100.58","","","","-27","","Clear"
"-73.75","45.47","MONTREAL/PIERRE ELLIOTT TRUDEAU INTL A","7025250","2011-12-29 03:00","2011","12","29","03:00","-16.1","","-22.0","","60","","26","","32","","25.0","","100.66","","","","-28","","Clear"
"-73.75","45.47","MONTREAL/PIERRE ELLIOTT TRUDEAU INTL A","7025250","2011-12-29 04:00","2011","12","29","04:00","-16.6","","-22.6","","60","","25","","26","","25.0","","100.73","","","","-27","","Clear"
"-73.75","45.47","MONTREAL/PIERRE ELLIOTT TRUDEAU INTL A","7025250","2011-12-29 05:00","2011","12","29","05:00","-17.1","","-22.9","","61","","25","","28","","25.0","","100.80","","","","-28","","Clear"
"-73.75","45.47","MONTREAL/PIERRE ELLIOTT TRUDEAU INTL A","7025250","2011-12-29 06:00","2011","12","29","06:00","-17.7","","-23.3","","62","","25","","26","","25.0","","100.84","","","","-29","","Clear"
"-73.75","45.47","MONTREAL/PIERRE ELLIOTT TRUDEAU INTL A","7025250","2011-12-29 07:00","2011","12","29","07:00","-18.1","","-23.7","","61","","24","","30","","25.0","","100.92","","","","-30","","Clear"
"-73.75","45.47","MONTREAL/PIERRE ELLIOTT TRUDEAU INTL A","7025250","2011-12-29 08:00","2011","12","29","08:00","-18.5","","-24.0","","62","","25","","35","","24.1","","100.93","","","","-31","","Clear"
"-73.75","45.47","MONTREAL/PIERRE ELLIOTT TRUDEAU INTL A","7025250","2011-12-29 09:00","2011","12","29","09:00","-18.5","","-24.0","","62","","26","","35","","24.1","","100.99","","","","-31","","Clear"
"-73.75","45.47","MONTREAL/PIERRE ELLIOTT TRUDEAU INTL A","7025250","2011-12-29 10:00","2011","12","29","10:00","-17.7","","-23.4","","61","","25","","28","","48.3","","101.04","","","","-29","","Mainly Clear"
"-73.75","45.47","MONTREAL/PIERRE ELLIOTT TRUDEAU INTL A","7025250","2011-12-29 11:00","2011","12","29","11:00","-17.2","","-23.3","","59","","24","","28","","48.3","","101.03","","","","-29","","Mainly Clear"
"-73.75","45.47","MONTREAL/PIERRE ELLIOTT TRUDEAU INTL A","7025250","2011-12-29 12:00","2011","12","29","12:00","-16.2","","-22.8","","57","","25","","28","","48.3","","100.99","","","","-27","","Mainly Clear"
"-73.75","45.47","MONTREAL/PIERRE ELLIOTT TRUDEAU INTL A","7025250","2011-12-29 13:00","2011","12","29","13:00","-15.5","","-22.6","","54","","25","","28","","48.3","","100.99","","","","-26","","Mainly Clear"
"-73.75","45.47","MONTREAL/PIERRE ELLIOTT TRUDEAU INTL A","7025250","2011-12-29 14:00","2011","12","29","14:00","-14.9","","-21.9","","55","","26","","30","","48.3","","101.00","","","","-26","","Mainly Clear"
"-73.75","45.47","MONTREAL/PIERRE ELLIOTT TRUDEAU INTL A","7025250","2011-12-29 15:00","2011","12","29","15:00","-14.4","","-21.7","","54","","26","","24","","48.3","","101.06","","","","-24","","Mainly Clear"
"-73.75","45.47","MONTREAL/PIERRE ELLIOTT TRUDEAU INTL A","7025250","2011-12-29 16:00","2011","12","29","16:00","-14.6","","-22.0","","53","","25","","24","","48.3","","101.13","","","","-24","","Clear"
"-73.75","45.47","MONTREAL/PIERRE ELLIOTT TRUDEAU INTL A","7025250","2011-12-29 17:00","2011","12","29","17:00","-15.0","","-22.2","","54","","26","","19","","25.0","","101.17","","","","-24","","Clear"
"-73.75","45.47","MONTREAL/PIERRE ELLIOTT TRUDEAU INTL A","7025250","2011-12-29 18:00","2011","12","29","18:00","-15.2","","-21.9","","57","","25","","13","","25.0","","101.24","","","","-23","","Clear"
"-73.75","45.47","MONTREAL/PIERRE ELLIOTT TRUDEAU INTL A","7025250","2011-12-29 19:00","2011","12","29","19:00","-15.6","","-22.3","","56","","25","","11","","25.0","","101.27","","","","-22","","Clear"
"-73.75","45.47","MONTREAL/PIERRE ELLIOTT TRUDEAU INTL A","7025250","2011-12-29 20:00","2011","12","29","20:00","-16.8","","-22.6","","61","","28","","4","","25.0","","101.29","","","","-20","","Clear"
"-73.75","45.47","MONTREAL/PIERRE ELLIOTT TRUDEAU INTL A","7025250","2011-12-29 21:00","2011","12","29","21:00","-16.3","","-21.6","","64","","30","","7","","25.0","","101.30","","","","-21","","Clear"
"-73.75","45.47","MONTREAL/PIERRE ELLIOTT TRUDEAU INTL A","7025250","2011-12-29 22:00","2011","12","29","22:00","-16.6","","-21.6","","65","","","","0","","25.0","","101.33","","","","","","Clear"
"-73.75","45.47","MONTREAL/PIERRE ELLIOTT TRUDEAU INTL A","7025250","2011-12-29 23:00","2011","12","29","23:00","-16.6","","-21.4","","66","","35","","7","","25.0","","101.35","","","","-22","","Clear"
"-73.75","45.47","MONTREAL/PIERRE ELLIOTT TRUDEAU INTL A","7025250","2011-12-30 00:00","2011","12","30","00:00","-17.4","","-21.8","","69","","36","","6","","25.0","","101.37","","","","-22","","Clear"
"-73.75","45.47","MONTREAL/PIERRE ELLIOTT TRUDEAU INTL A","7025250","2011-12-30 01:00","2011","12","30","01:00","-17.4","","-22.1","","67","","3","","6","","25.0","","101.38","","","","-22","","Clear"
"-73.75","45.47","MONTREAL/PIERRE ELLIOTT TRUDEAU INTL A","7025250","2011-12-30 02:00","2011","12","30","02:00","-15.7","","-20.2","","68","","11","","6","","25.0","","101.45","","","","-20","","Clear"
"-73.75","45.47","MONTREAL/PIERRE ELLIOTT TRUDEAU INTL A","7025250","2011-12-30 03:00","2011","12","30","03:00","-16.2","","-20.7","","68","","3","","9","","25.0","","101.46","","","","-22","","Clear"
"-73.75","45.47","MONTREAL/PIERRE ELLIOTT TRUDEAU INTL A","7025250","2011-12-30 04:00","2011","12","30","04:00","-14.9","","-20.1","","64","","5","","15","","25.0","","101.43","","","","-23","","Clear"
"-73.75","45.47","MONTREAL/PIERRE ELLIOTT TRUDEAU INTL A","7025250","2011-12-30 05:00","2011","12","30","05:00","-15.4","","-21.0","","62","","6","","13","","25.0","","101.44","","","","-23","","Clear"
"-73.75","45.47","MONTREAL/PIERRE ELLIOTT TRUDEAU INTL A","7025250","2011-12-30 06:00","2011","12","30","06:00","-15.7","","-21.7","","60","","5","","20","","25.0","","101.49","","","","-25","","Mainly Clear"
"-73.75","45.47","MONTREAL/PIERRE ELLIOTT TRUDEAU INTL A","7025250","2011-12-30 07:00","2011","12","30","07:00","-15.7","","-21.2","","63","","5","","20","","25.0","","101.54","","","","-25","","Mainly Clear"
"-73.75","45.47","MONTREAL/PIERRE ELLIOTT TRUDEAU INTL A","7025250","2011-12-30 08:00","2011","12","30","08:00","-15.9","","-21.8","","60","","5","","24","","24.1","","101.56","","","","-26","","Mostly Cloudy"
"-73.75","45.47","MONTREAL/PIERRE ELLIOTT TRUDEAU INTL A","7025250","2011-12-30 09:00","2011","12","30","09:00","-15.3","","-21.5","","59","","6","","22","","24.1","","101.60","","","","-25","","Mostly Cloudy"
"-73.75","45.47","MONTREAL/PIERRE ELLIOTT TRUDEAU INTL A","7025250","2011-12-30 10:00","2011","12","30","10:00","-14.8","","-20.7","","61","","3","","22","","24.1","","101.60","","","","-24","","Cloudy"
"-73.75","45.47","MONTREAL/PIERRE ELLIOTT TRUDEAU INTL A","7025250","2011-12-30 11:00","2011","12","30","11:00","-14.9","","-20.1","","64","","3","","17","","24.1","","101.56","","","","-23","","Cloudy"
"-73.75","45.47","MONTREAL/PIERRE ELLIOTT TRUDEAU INTL A","7025250","2011-12-30 12:00","2011","12","30","12:00","-14.5","","-19.5","","66","","3","","22","","24.1","","101.43","","","","-24","","Snow"
"-73.75","45.47","MONTREAL/PIERRE ELLIOTT TRUDEAU INTL A","7025250","2011-12-30 13:00","2011","12","30","13:00","-13.6","","-18.7","","65","","4","","22","","24.1","","101.37","","","","-23","","Snow"
"-73.75","45.47","MONTREAL/PIERRE ELLIOTT TRUDEAU INTL A","7025250","2011-12-30 14:00","2011","12","30","14:00","-12.7","","-18.0","","64","","4","","24","","24.1","","101.34","","","","-22","","Snow"
"-73.75","45.47","MONTREAL/PIERRE ELLIOTT TRUDEAU INTL A","7025250","2011-12-30 15:00","2011","12","30","15:00","-12.0","","-17.3","","65","","3","","19","","24.1","","101.39","","","","-20","","Snow"
"-73.75","45.47","MONTREAL/PIERRE ELLIOTT TRUDEAU INTL A","7025250","2011-12-30 16:00","2011","12","30","16:00","-11.0","","-16.3","","65","","3","","15","","4.8","","101.42","","","","-18","","Snow"
"-73.75","45.47","MONTREAL/PIERRE ELLIOTT TRUDEAU INTL A","7025250","2011-12-30 17:00","2011","12","30","17:00","-11.3","","-15.4","","72","","3","","17","","9.7","","101.45","","","","-19","","Snow"
"-73.75","45.47","MONTREAL/PIERRE ELLIOTT TRUDEAU INTL A","7025250","2011-12-30 18:00","2011","12","30","18:00","-10.6","","-13.7","","78","","4","","19","","25.0","","101.38","","","","-18","","Snow"
"-73.75","45.47","MONTREAL/PIERRE ELLIOTT TRUDEAU INTL A","7025250","2011-12-30 19:00","2011","12","30","19:00","-9.7","","-13.6","","73","","5","","19","","25.0","","101.37","","","","-17","","Cloudy"
"-73.75","45.47","MONTREAL/PIERRE ELLIOTT TRUDEAU INTL A","7025250","2011-12-30 20:00","2011","12","30","20:00","-9.5","","-13.5","","73","","5","","20","","25.0","","101.34","","","","-17","","Cloudy"
"-73.75","45.47","MONTREAL/PIERRE ELLIOTT TRUDEAU INTL A","7025250","2011-12-30 21:00","2011","12","30","21:00","-8.7","","-12.8","","72","","5","","20","","25.0","","101.30","","","","-16","","Cloudy"
"-73.75","45.47","MONTREAL/PIERRE ELLIOTT TRUDEAU INTL A","7025250","2011-12-30 22:00","2011","12","30","22:00","-8.3","","-12.7","","71","","3","","17","","25.0","","101.28","","","","-15","","Cloudy"
"-73.75","45.47","MONTREAL/PIERRE ELLIOTT TRUDEAU INTL A","7025250","2011-12-30 23:00","2011","12","30","23:00","-8.2","","-12.4","","72","","4","","19","","25.0","","101.24","","","","-15","","Cloudy"
"-73.75","45.47","MONTREAL/PIERRE ELLIOTT TRUDEAU INTL A","7025250","2011-12-31 00:00","2011","12","31","00:00","-8.0","","-11.7","","75","","3","","17","","2.8","","101.20","","","","-15","","Snow Showers"
"-73.75","45.47","MONTREAL/PIERRE ELLIOTT TRUDEAU INTL A","7025250","2011-12-31 01:00","2011","12","31","01:00","-7.8","","-11.1","","77","","4","","20","","9.7","","101.12","","","","-15","","Ice Pellets"
"-73.75","45.47","MONTREAL/PIERRE ELLIOTT TRUDEAU INTL A","7025250","2011-12-31 02:00","2011","12","31","02:00","-7.3","","-10.3","","79","","4","","22","","9.7","","101.04","","","","-15","","Freezing Rain"
"-73.75","45.47","MONTREAL/PIERRE ELLIOTT TRUDEAU INTL A","7025250","2011-12-31 03:00","2011","12","31","03:00","-7.0","","-9.7","","81","","4","","24","","12.9","","100.95","","","","-15","","Freezing Rain"
"-73.75","45.47","MONTREAL/PIERRE ELLIOTT TRUDEAU INTL A","7025250","2011-12-31 04:00","2011","12","31","04:00","-6.9","","-9.6","","81","","3","","24","","19.3","","100.88","","","","-15","","Cloudy"
"-73.75","45.47","MONTREAL/PIERRE ELLIOTT TRUDEAU INTL A","7025250","2011-12-31 05:00","2011","12","31","05:00","-6.7","","-9.3","","82","","4","","26","","25.0","","100.77","","","","-15","","Cloudy"
"-73.75","45.47","MONTREAL/PIERRE ELLIOTT TRUDEAU INTL A","7025250","2011-12-31 06:00","2011","12","31","06:00","-6.0","","-8.5","","82","","4","","19","","19.3","","100.77","","","","-13","","Cloudy"
"-73.75","45.47","MONTREAL/PIERRE ELLIOTT TRUDEAU INTL A","7025250","2011-12-31 07:00","2011","12","31","07:00","-5.6","","-8.0","","83","","4","","20","","19.3","","100.76","","","","-12","","Cloudy"
"-73.75","45.47","MONTREAL/PIERRE ELLIOTT TRUDEAU INTL A","7025250","2011-12-31 08:00","2011","12","31","08:00","-5.2","","-7.4","","84","","2","","20","","16.1","","100.80","","","","-12","","Cloudy"
"-73.75","45.47","MONTREAL/PIERRE ELLIOTT TRUDEAU INTL A","7025250","2011-12-31 09:00","2011","12","31","09:00","-4.7","","-7.1","","83","","2","","19","","12.9","","100.85","","","","-11","","Cloudy"
"-73.75","45.47","MONTREAL/PIERRE ELLIOTT TRUDEAU INTL A","7025250","2011-12-31 10:00","2011","12","31","10:00","-4.2","","-6.5","","84","","3","","17","","8.0","","100.88","","","","-10","","Ice Pellets"
"-73.75","45.47","MONTREAL/PIERRE ELLIOTT TRUDEAU INTL A","7025250","2011-12-31 11:00","2011","12","31","11:00","-3.9","","-6.3","","83","","2","","20","","9.7","","100.79","","","","-10","","Freezing Rain"
"-73.75","45.47","MONTREAL/PIERRE ELLIOTT TRUDEAU INTL A","7025250","2011-12-31 12:00","2011","12","31","12:00","-3.6","","-6.2","","82","","3","","17","","16.1","","100.73","","","","-9","","Freezing Drizzle"
"-73.75","45.47","MONTREAL/PIERRE ELLIOTT TRUDEAU INTL A","7025250","2011-12-31 13:00","2011","12","31","13:00","-3.3","","-6.0","","82","","3","","19","","16.1","","100.67","","","","-9","","Cloudy"
"-73.75","45.47","MONTREAL/PIERRE ELLIOTT TRUDEAU INTL A","7025250","2011-12-31 14:00","2011","12","31","14:00","-3.0","","-5.8","","81","","4","","13","","16.1","","100.71","","","","-8","","Cloudy"
"-73.75","45.47","MONTREAL/PIERRE ELLIOTT TRUDEAU INTL A","7025250","2011-12-31 15:00","2011","12","31","15:00","-2.7","","-5.7","","80","","4","","11","","19.3","","100.77","","","","-7","","Cloudy"
"-73.75","45.47","MONTREAL/PIERRE ELLIOTT TRUDEAU INTL A","7025250","2011-12-31 16:00","2011","12","31","16:00","-2.6","","-5.6","","80","","1","","9","","19.3","","100.86","","","","-6","","Cloudy"
"-73.75","45.47","MONTREAL/PIERRE ELLIOTT TRUDEAU INTL A","7025250","2011-12-31 17:00","2011","12","31","17:00","-2.6","","-5.7","","79","","1","","9","","16.1","","100.90","","","","-6","","Cloudy"
"-73.75","45.47","MONTREAL/PIERRE ELLIOTT TRUDEAU INTL A","7025250","2011-12-31 18:00","2011","12","31","18:00","-2.5","","-5.3","","81","","36","","7","","16.1","","100.95","","","","-5","","Cloudy"
"-73.75","45.47","MONTREAL/PIERRE ELLIOTT TRUDEAU INTL A","7025250","2011-12-31 19:00","2011","12","31","19:00","-2.3","","-5.2","","80","","31","","6","","16.1","","101.03","","","","-5","","Cloudy"
"-73.75","45.47","MONTREAL/PIERRE ELLIOTT TRUDEAU INTL A","7025250","2011-12-31 20:00","2011","12","31","20:00","-2.1","","-5.1","","80","","1","","6","","25.0","","101.07","","","","-4","","Cloudy"
"-73.75","45.47","MONTREAL/PIERRE ELLIOTT TRUDEAU INTL A","7025250","2011-12-31 21:00","2011","12","31","21:00","-2.1","","-4.7","","82","","32","","6","","25.0","","101.13","","","","-4","","Cloudy"
"-73.75","45.47","MONTREAL/PIERRE ELLIOTT TRUDEAU INTL A","7025250","2011-12-31 22:00","2011","12","31","22:00","-2.0","","-4.2","","85","","27","","7","","6.4","","101.24","","","","-5","","Freezing Drizzle,Fog"
"-73.75","45.47","MONTREAL/PIERRE ELLIOTT TRUDEAU INTL A","7025250","2011-12-31 23:00","2011","12","31","23:00","-1.9","","-4.1","","85","","25","","9","","9.7","","101.24","","","","-5","","Fog"
